{"type":"FeatureCollection","features":[{"type":"Feature","properties":{"settore":"BAT","n_comuni":10},"geometry":{"type":"Polygon","coordinates":[[[15.8703,41.1399],[15.8838,41.1508],[15.89291,41.15401],[15.91048,41.16609],[15.92711,41.1808],[15.932,41.183],[15.95051,41.18341],[15.97697,41.19139],[15.9816,41.1949],[15.99168,41.19546],[15.99646,41.19943],[15.9954,41.206],[16.00801,41.20892],[16.02033,41.22045],[16.0198,41.22927],[16.0166,41.2302],[16.0176,41.2394],[16.02701,41.24831],[16.03981,41.26928],[16.0224,41.264],[16.0125,41.2643],[15.98776,41.30434],[15.9834,41.3047],[15.9819,41.36079],[15.99211,41.36101],[16.03109,41.3739],[16.03441,41.37604],[16.03717,41.38336],[16.0177,41.3899],[15.99989,41.4008],[15.9836,41.4055],[15.97634,41.41392],[15.9375,41.4247],[15.9522,41.4412],[15.9792,41.4383],[16.02442,41.42154],[16.0248,41.4258],[16.05011,41.4181],[16.12625,41.38762],[16.1351,41.3876],[16.1713,41.3686],[16.2126,41.357],[16.24318,41.33741],[16.2632,41.3283],[16.27677,41.32441],[16.2845,41.3253],[16.29103,41.32189],[16.3548,41.3058],[16.40089,41.28511],[16.4194,41.2825],[16.44782,41.2623],[16.46759,41.25581],[16.4777,41.2557],[16.48532,41.2512],[16.505,41.247],[16.50558,41.24351],[16.5179,41.2433],[16.53119,41.239],[16.5423,41.2295],[16.5393,41.2162],[16.5338,41.20741],[16.5209,41.1961],[16.51099,41.18311],[16.517,41.1725],[16.5038,41.1513],[16.48269,41.1536],[16.47482,41.1524],[16.4705,41.1489],[16.4637,41.1636],[16.45653,41.17386],[16.4434,41.1798],[16.43629,41.18819],[16.4288,41.19029],[16.4197,41.1872],[16.4027,41.188],[16.3981,41.1894],[16.39702,41.19411],[16.39167,41.19606],[16.38587,41.19163],[16.38131,41.18192],[16.3849,41.18],[16.3828,41.1773],[16.37547,41.17679],[16.36387,41.17123],[16.3587,41.1643],[16.3492,41.1639],[16.34019,41.16632],[16.3417,41.1564],[16.33773,41.15133],[16.34037,41.14309],[16.3517,41.13469],[16.3473,41.1253],[16.3228,41.1068],[16.313,41.0902],[16.29878,41.0845],[16.2991,41.0741],[16.26519,41.03729],[16.26326,41.03322],[16.2675,41.0288],[16.2666,41.0239],[16.25425,41.01487],[16.2664,41.0053],[16.2519,40.9622],[16.22608,40.94598],[16.2102,40.9301],[16.2025,40.9175],[16.16301,40.92856],[16.1556,40.9227],[16.14867,40.92348],[16.13812,40.9184],[16.1351,40.91398],[16.1343,40.9066],[16.12324,40.90161],[16.1211,40.8977],[16.09943,40.91688],[16.09191,40.92099],[16.0618,40.9285],[16.02612,40.94349],[15.98321,40.9545],[15.9766,40.9585],[15.9718,40.9721],[15.99339,40.97],[16.00858,40.97231],[16.03113,40.99792],[16.03119,41.00518],[16.0276,41.0116],[16.0279,41.0241],[16.0306,41.0267],[16.04079,41.02845],[16.03987,41.03412],[16.02688,41.04791],[16.0095,41.05715],[15.9987,41.0548],[15.9823,41.07741],[15.9802,41.0816],[15.98355,41.08537],[15.98301,41.08862],[15.97776,41.09324],[15.9541,41.0931],[15.95993,41.10012],[15.95406,41.1094],[15.93843,41.11336],[15.9318,41.109],[15.9214,41.1115],[15.90092,41.12631],[15.8944,41.1233],[15.8778,41.13761],[15.8749,41.1368],[15.8703,41.1399]],[[16.32111,41.26895],[16.32168,41.26991],[16.32077,41.26921],[16.32111,41.26895]],[[16.20439,41.3337],[16.20663,41.33356],[16.20697,41.3343],[16.2066,41.33453],[16.20439,41.3337]],[[16.19906,41.33616],[16.19761,41.33571],[16.20021,41.33324],[16.19906,41.33616]],[[16.1971,41.0102],[16.19964,41.01221],[16.19505,41.00996],[16.1971,41.0102]],[[16.18362,41.03443],[16.18346,41.0322],[16.18526,41.03661],[16.18362,41.03443]],[[16.10577,41.18983],[16.11268,41.19578],[16.11515,41.20005],[16.11473,41.20002],[16.10577,41.18983]],[[16.07994,41.2842],[16.08071,41.28463],[16.07982,41.28483],[16.07994,41.2842]],[[16.06935,41.27688],[16.06882,41.27583],[16.07005,41.27653],[16.06935,41.27688]]]}},{"type":"Feature","properties":{"settore":"BA_01","n_comuni":23},"geometry":{"type":"MultiPolygon","coordinates":[[[[16.5038,41.1513],[16.51694,41.17246],[16.5109,41.183],[16.5173,41.1923],[16.53768,41.21239],[16.5423,41.2295],[16.5597,41.2246],[16.58429,41.2119],[16.58468,41.20748],[16.6009,41.2048],[16.62797,41.19411],[16.64021,41.1944],[16.6749,41.189],[16.68237,41.18218],[16.73158,41.1698],[16.7446,41.168],[16.76288,41.16051],[16.7788,41.1597],[16.79231,41.1483],[16.81151,41.1401],[16.83497,41.13701],[16.8454,41.1398],[16.85162,41.13013],[16.86252,41.12951],[16.87083,41.13566],[16.87115,41.13981],[16.86666,41.14311],[16.85381,41.1454],[16.8682,41.1432],[16.8724,41.1402],[16.87332,41.12565],[16.87781,41.1231],[16.9274,41.1116],[16.9602,41.0973],[17.05829,41.076],[17.09069,41.0633],[17.11492,41.04949],[17.14468,41.03661],[17.1762,41.0285],[17.1991,41.0106],[17.2036,41.0058],[17.20098,41.00533],[17.2056,41.00151],[17.2357,40.9931],[17.2584,40.9801],[17.25736,40.97722],[17.26,40.9798],[17.26373,40.97492],[17.273,40.9743],[17.2823,40.9695],[17.28255,40.9663],[17.28608,40.96421],[17.3018,40.9583],[17.30584,40.95058],[17.3284,40.9351],[17.35153,40.9051],[17.3892,40.8923],[17.3703,40.8855],[17.3547,40.8768],[17.33911,40.85851],[17.32161,40.8431],[17.31215,40.84096],[17.3104,40.829],[17.29773,40.82012],[17.29585,40.81714],[17.3102,40.8109],[17.333,40.8068],[17.36489,40.78642],[17.3762,40.7876],[17.3995,40.7853],[17.3977,40.7751],[17.38739,40.77087],[17.39189,40.75943],[17.3956,40.7569],[17.3942,40.7493],[17.3915,40.7475],[17.3749,40.75039],[17.363,40.7481],[17.3507,40.74889],[17.34106,40.74293],[17.3403,40.7393],[17.3356,40.7378],[17.32306,40.74357],[17.3157,40.7409],[17.3068,40.7446],[17.283,40.7676],[17.2822,40.7724],[17.2929,40.7741],[17.30105,40.7727],[17.30099,40.77457],[17.2891,40.7821],[17.2888,40.787],[17.2959,40.7886],[17.29529,40.78494],[17.30166,40.78461],[17.3102,40.79028],[17.3017,40.8021],[17.30579,40.80704],[17.2976,40.8002],[17.28745,40.80107],[17.2862,40.7976],[17.24376,40.79886],[17.2509,40.7706],[17.248,40.7656],[17.2278,40.7573],[17.21462,40.76128],[17.2043,40.757],[17.20377,40.77432],[17.1846,40.7994],[17.20077,40.80762],[17.1835,40.8225],[17.18185,40.82784],[17.1613,40.8447],[17.15975,40.85668],[17.1528,40.8592],[17.14757,40.86722],[17.11975,40.88546],[17.1128,40.8778],[17.1023,40.8764],[17.0869,40.8854],[17.0839,40.8889],[17.0859,40.8919],[17.07777,40.89355],[17.0641,40.8817],[17.0524,40.8872],[17.05877,40.89887],[17.0534,40.9136],[17.05497,40.92341],[17.0458,40.9341],[17.05272,40.94498],[17.04,40.9448],[17.02924,40.95817],[16.9882,40.952],[16.97356,40.95301],[16.9662,40.9297],[16.9645,40.9091],[16.94209,40.91009],[16.93851,40.90839],[16.9346,40.9017],[16.92961,40.8987],[16.92458,40.90026],[16.92221,40.89446],[16.92409,40.8749],[16.8972,40.8732],[16.8944,40.8955],[16.90039,40.89735],[16.90269,40.90573],[16.8899,40.9049],[16.8809,40.94729],[16.88093,40.96169],[16.87725,40.96156],[16.8668,40.9529],[16.8549,40.9526],[16.85495,40.96639],[16.84187,40.9733],[16.837,40.9618],[16.83271,40.9593],[16.8201,40.9615],[16.8101,40.95959],[16.7968,40.9509],[16.78937,40.94918],[16.7799,40.9418],[16.77773,40.94285],[16.7722,40.9347],[16.7566,40.9271],[16.72376,40.92739],[16.7212,40.9202],[16.7101,40.924],[16.7118,40.9311],[16.7244,40.9438],[16.7391,40.9497],[16.74621,40.94732],[16.75855,40.95151],[16.76529,40.97469],[16.76068,40.99844],[16.75999,40.9975],[16.7314,41.0118],[16.73019,41.0277],[16.7237,41.0409],[16.72741,41.04418],[16.73,41.0618],[16.73836,41.06679],[16.7396,41.0716],[16.74895,41.07427],[16.7482,41.0865],[16.75567,41.09962],[16.75,41.1148],[16.75084,41.12226],[16.72366,41.15284],[16.71752,41.15471],[16.67362,41.1465],[16.6642,41.1436],[16.6579,41.1385],[16.64852,41.14008],[16.642,41.1361],[16.63224,41.13795],[16.62122,41.1293],[16.6189,41.1209],[16.61479,41.11759],[16.6074,41.1064],[16.57405,41.09935],[16.5687,41.09327],[16.5661,41.0788],[16.5411,41.0515],[16.5328,41.0459],[16.5147,41.0438],[16.5143,41.05],[16.5193,41.06231],[16.5208,41.0772],[16.5149,41.10019],[16.5081,41.1119],[16.50959,41.12161],[16.506,41.1333],[16.50954,41.14841],[16.5038,41.1513]],[[17.188,40.89766],[17.18805,40.90196],[17.18659,40.89689],[17.188,40.89766]],[[17.1422,40.91893],[17.14098,40.91889],[17.14114,40.9185],[17.1422,40.91893]],[[17.12319,40.90069],[17.12249,40.90555],[17.12096,40.89361],[17.12319,40.90069]],[[16.96138,40.98065],[16.96665,40.97457],[16.96707,40.97454],[16.96062,40.9837],[16.96138,40.98065]],[[16.95855,40.99005],[16.9574,41.00168],[16.95827,40.98974],[16.95855,40.99005]],[[16.95376,41.0412],[16.95477,41.04343],[16.95335,41.04129],[16.95376,41.0412]],[[16.84461,40.98738],[16.8452,40.9896],[16.84391,40.99234],[16.84366,40.99201],[16.84461,40.98738]],[[16.83964,41.01138],[16.84002,41.01244],[16.83424,41.00995],[16.83964,41.01138]],[[16.81516,41.08695],[16.81037,41.08817],[16.81003,41.08794],[16.81678,41.08502],[16.81516,41.08695]],[[16.80516,41.04376],[16.80299,41.04296],[16.80279,41.04199],[16.80321,41.04194],[16.80516,41.04376]],[[16.7712,40.94638],[16.77784,40.9431],[16.78588,40.95351],[16.78337,40.9562],[16.77542,40.95784],[16.77102,40.95475],[16.7712,40.94638]],[[16.59433,41.13836],[16.5959,41.1369],[16.5988,41.13777],[16.59433,41.13836]]],[[[17.2971,40.7878],[17.2986,40.789],[17.2993,40.7868],[17.2977,40.787],[17.2971,40.7878]]],[[[17.2901,40.7911],[17.2918,40.7907],[17.2912,40.7893],[17.2912,40.78931],[17.2901,40.7911]]],[[[17.2801,40.78],[17.2826,40.7809],[17.2829,40.7783],[17.2806,40.7784],[17.2801,40.78]]],[[[17.2357,40.9946],[17.23649,40.9951],[17.2365,40.9951],[17.2366,40.9946],[17.2357,40.9946]]],[[[16.5158,41.0704],[16.5165,41.0728],[16.5173,41.0712],[16.5158,41.0704]]]]}},{"type":"Feature","properties":{"settore":"BA_02","n_comuni":13},"geometry":{"type":"Polygon","coordinates":[[[16.4717,40.9877],[16.4761,40.9954],[16.49709,41.0103],[16.50935,41.01296],[16.511,41.0328],[16.5147,41.0438],[16.53278,41.0459],[16.5411,41.0515],[16.56606,41.07876],[16.5687,41.0933],[16.5741,41.0994],[16.6083,41.10702],[16.61888,41.12088],[16.6212,41.1293],[16.6277,41.1359],[16.6323,41.138],[16.642,41.13612],[16.6485,41.1401],[16.65788,41.13853],[16.6642,41.1436],[16.68451,41.1494],[16.7173,41.1548],[16.72329,41.1532],[16.7509,41.1222],[16.74972,41.11377],[16.7557,41.0996],[16.74822,41.08651],[16.7498,41.0742],[16.7399,41.07166],[16.7407,41.07],[16.73004,41.06181],[16.7274,41.0441],[16.72378,41.04075],[16.7302,41.0277],[16.73146,41.01179],[16.76,40.9975],[16.7643,40.9869],[16.7643,40.97289],[16.7637,40.9651],[16.7586,40.9515],[16.7462,40.9473],[16.73906,40.94968],[16.72573,40.94441],[16.71183,40.93112],[16.71025,40.92395],[16.72236,40.91848],[16.7212,40.9202],[16.7236,40.9274],[16.75664,40.92712],[16.77218,40.9347],[16.77761,40.94271],[16.7712,40.9462],[16.771,40.9548],[16.7755,40.9579],[16.7834,40.9562],[16.786,40.9534],[16.77798,40.94323],[16.77995,40.94187],[16.7894,40.9492],[16.79682,40.95092],[16.8101,40.9596],[16.8201,40.9615],[16.83507,40.96025],[16.8417,40.9734],[16.855,40.9664],[16.85512,40.95262],[16.86678,40.95291],[16.8773,40.9616],[16.881,40.9618],[16.8809,40.9473],[16.88986,40.9051],[16.9028,40.906],[16.9004,40.8973],[16.89442,40.89532],[16.8952,40.8843],[16.89769,40.87343],[16.92379,40.87488],[16.9222,40.8945],[16.9246,40.9004],[16.92968,40.89879],[16.9418,40.9101],[16.96336,40.90931],[16.9662,40.9297],[16.9735,40.9531],[16.9882,40.952],[17.0293,40.9582],[17.04,40.94484],[17.053,40.9452],[17.04587,40.93412],[17.055,40.9234],[17.05341,40.91359],[17.0588,40.8988],[17.05264,40.88709],[17.06477,40.88214],[17.0765,40.8934],[17.0864,40.8918],[17.084,40.88887],[17.08688,40.88542],[17.10395,40.87611],[17.1128,40.87783],[17.1191,40.8859],[17.1476,40.8672],[17.15282,40.8592],[17.1598,40.8567],[17.16135,40.84466],[17.1819,40.8278],[17.18354,40.82247],[17.1954,40.8112],[17.19329,40.81011],[17.1986,40.8099],[17.2011,40.8078],[17.1998,40.8061],[17.18477,40.79965],[17.2038,40.7743],[17.2031,40.7609],[17.15704,40.74159],[17.1485,40.7099],[17.12271,40.707],[17.1162,40.7082],[17.11672,40.71093],[17.11292,40.71351],[17.10173,40.71447],[17.0965,40.7088],[17.08691,40.7109],[17.08807,40.71704],[17.08569,40.71919],[17.06306,40.7211],[17.0337,40.7121],[17.024,40.7127],[17.0009,40.7314],[17.01886,40.74997],[17.01849,40.7559],[17.0155,40.7598],[17.01938,40.7631],[17.0059,40.7546],[16.9726,40.7417],[16.94702,40.7432],[16.9287,40.7387],[16.92589,40.73675],[16.92312,40.72603],[16.9307,40.7129],[16.9041,40.7066],[16.8997,40.7077],[16.89923,40.71201],[16.89238,40.7151],[16.87519,40.71649],[16.8707,40.7115],[16.8639,40.72147],[16.85589,40.72358],[16.8489,40.72049],[16.8421,40.7128],[16.81816,40.70623],[16.8186,40.69932],[16.8218,40.6939],[16.8086,40.692],[16.8001,40.695],[16.78662,40.7332],[16.7343,40.7108],[16.6732,40.7385],[16.6553,40.7572],[16.66081,40.77441],[16.6744,40.789],[16.69786,40.80753],[16.69419,40.8289],[16.6826,40.846],[16.69508,40.8588],[16.69368,40.86672],[16.6844,40.8823],[16.6834,40.8875],[16.68674,40.89164],[16.6846,40.896],[16.69883,40.89825],[16.6679,40.896],[16.6531,40.9101],[16.64339,40.92521],[16.63647,40.92609],[16.6249,40.9229],[16.61558,40.9297],[16.59773,40.93578],[16.5772,40.9307],[16.5639,40.933],[16.54872,40.94219],[16.54049,40.9438],[16.472,40.9776],[16.4717,40.9877]],[[17.04929,40.81892],[17.0467,40.81918],[17.04655,40.81878],[17.04929,40.81892]],[[16.98475,40.83833],[16.98549,40.84269],[16.98523,40.84303],[16.9833,40.83807],[16.98475,40.83833]],[[16.98241,40.83547],[16.98317,40.83561],[16.98266,40.83593],[16.98241,40.83547]],[[16.8151,40.88112],[16.81364,40.88139],[16.81494,40.88072],[16.8151,40.88112]],[[16.80209,40.86935],[16.80391,40.86971],[16.80386,40.87013],[16.80209,40.86935]],[[16.78742,40.84088],[16.78514,40.84189],[16.78928,40.83826],[16.78742,40.84088]],[[16.73792,41.07393],[16.73937,41.07281],[16.73848,41.07601],[16.73792,41.07393]],[[16.716,41.01635],[16.71375,41.01744],[16.71598,41.01592],[16.716,41.01635]],[[16.71585,40.83141],[16.71358,40.83116],[16.71578,40.8305],[16.71585,40.83141]],[[16.68437,41.01673],[16.68616,41.01548],[16.68656,41.0156],[16.68504,41.01773],[16.68437,41.01673]],[[16.63473,41.00653],[16.65008,41.0082],[16.65753,41.01081],[16.65718,41.01104],[16.63473,41.00653]],[[16.56405,41.00353],[16.56038,41.00251],[16.56435,41.00324],[16.56405,41.00353]]]}},{"type":"Feature","properties":{"settore":"BA_03","n_comuni":5},"geometry":{"type":"Polygon","coordinates":[[[16.2025,40.9175],[16.2102,40.9301],[16.22609,40.94599],[16.25191,40.96225],[16.26614,41.00456],[16.254,41.0148],[16.26656,41.02389],[16.26746,41.02879],[16.2633,41.03251],[16.2787,41.054],[16.29905,41.07406],[16.2987,41.0845],[16.31298,41.0902],[16.3228,41.1068],[16.34732,41.12534],[16.35162,41.13465],[16.3404,41.14301],[16.3377,41.1514],[16.34168,41.15645],[16.34,41.1665],[16.34918,41.16391],[16.35862,41.1643],[16.36381,41.1712],[16.3755,41.1768],[16.3828,41.17733],[16.38471,41.17999],[16.3812,41.18171],[16.3859,41.1917],[16.3916,41.1961],[16.3971,41.1941],[16.39815,41.18942],[16.40271,41.188],[16.41967,41.1872],[16.4288,41.1903],[16.4363,41.1882],[16.44342,41.1798],[16.4565,41.1739],[16.4637,41.1636],[16.4679,41.15251],[16.47042,41.14907],[16.4748,41.1524],[16.4827,41.1536],[16.5038,41.1513],[16.5096,41.1485],[16.50601,41.13332],[16.5096,41.1216],[16.50812,41.11192],[16.5149,41.1002],[16.5208,41.0772],[16.5193,41.0623],[16.51101,41.03281],[16.511,41.0176],[16.5094,41.0129],[16.49708,41.01028],[16.47611,40.9954],[16.47171,40.9877],[16.47195,40.97884],[16.47495,40.97547],[16.54047,40.94382],[16.5487,40.9422],[16.5692,40.93161],[16.57812,40.93081],[16.5977,40.9358],[16.6195,40.9285],[16.62493,40.92294],[16.6365,40.9261],[16.6435,40.9252],[16.6531,40.9101],[16.66786,40.89605],[16.6846,40.896],[16.6863,40.8934],[16.68342,40.88751],[16.6844,40.88233],[16.6937,40.8667],[16.6951,40.8587],[16.68269,40.84593],[16.6942,40.8289],[16.6981,40.8081],[16.6955,40.8039],[16.6744,40.789],[16.66009,40.77337],[16.65522,40.7583],[16.65791,40.75241],[16.6634,40.7489],[16.6615,40.7368],[16.6494,40.738],[16.65147,40.74107],[16.64542,40.74537],[16.6403,40.7448],[16.6371,40.7482],[16.63886,40.75087],[16.63313,40.75338],[16.6143,40.7529],[16.60597,40.75549],[16.5944,40.7526],[16.5894,40.7555],[16.58888,40.76027],[16.58564,40.76257],[16.57467,40.76181],[16.56833,40.7579],[16.56742,40.75253],[16.578,40.742],[16.5724,40.7369],[16.5683,40.7372],[16.5611,40.7464],[16.55858,40.75449],[16.55269,40.75795],[16.53686,40.75285],[16.53146,40.7453],[16.5379,40.7421],[16.53694,40.73462],[16.5428,40.7297],[16.544,40.7255],[16.5384,40.7254],[16.5235,40.7354],[16.5204,40.7401],[16.52373,40.74319],[16.52267,40.7461],[16.5084,40.7534],[16.5013,40.76181],[16.4817,40.7392],[16.46199,40.7239],[16.43,40.704],[16.4138,40.7019],[16.4002,40.7074],[16.38477,40.73271],[16.3469,40.752],[16.31621,40.78309],[16.28439,40.7992],[16.27469,40.80691],[16.25441,40.82809],[16.25197,40.83331],[16.243,40.8385],[16.24039,40.84541],[16.231,40.8569],[16.2258,40.87809],[16.22617,40.88106],[16.21402,40.90496],[16.2025,40.9175]],[[16.64598,40.75388],[16.63632,40.75794],[16.63398,40.75496],[16.64225,40.75163],[16.64598,40.75388]],[[16.51659,41.07259],[16.51584,41.07066],[16.51711,41.07111],[16.51659,41.07259]]]}},{"type":"Feature","properties":{"settore":"BR_01","n_comuni":7},"geometry":{"type":"MultiPolygon","coordinates":[[[[17.81,40.712],[17.8091,40.71191],[17.8093,40.7128],[17.81,40.712]]],[[[17.8047,40.714],[17.8061,40.7138],[17.806,40.7131],[17.80599,40.7131],[17.8047,40.714]]],[[[17.80321,40.7138],[17.8033,40.7141],[17.8036,40.7138],[17.80321,40.7138]]],[[[17.2957,40.8179],[17.31036,40.82899],[17.3121,40.841],[17.32166,40.84315],[17.33911,40.85852],[17.3547,40.8768],[17.3703,40.8855],[17.3892,40.8923],[17.4219,40.8658],[17.4656,40.8439],[17.4704,40.84],[17.46821,40.83684],[17.47285,40.83218],[17.51499,40.8144],[17.55708,40.79881],[17.6769,40.7687],[17.7195,40.7525],[17.74848,40.73311],[17.77467,40.72051],[17.7986,40.7147],[17.7972,40.71146],[17.8011,40.7083],[17.7932,40.7023],[17.77882,40.7004],[17.7759,40.6759],[17.7685,40.65511],[17.7659,40.6515],[17.75378,40.64762],[17.7523,40.6445],[17.74988,40.64369],[17.7532,40.6368],[17.752,40.6313],[17.73189,40.62626],[17.73398,40.62386],[17.7406,40.6267],[17.7481,40.6232],[17.7508,40.6044],[17.7444,40.60549],[17.7342,40.601],[17.7146,40.6],[17.70438,40.6169],[17.67921,40.62667],[17.6772,40.6172],[17.67192,40.60808],[17.67328,40.60074],[17.6753,40.6002],[17.67085,40.58975],[17.6755,40.5838],[17.6744,40.57941],[17.6644,40.5713],[17.6469,40.5695],[17.6281,40.5744],[17.62679,40.58091],[17.61796,40.59191],[17.6103,40.5912],[17.6044,40.5934],[17.6057,40.6077],[17.60764,40.61354],[17.6045,40.6074],[17.56051,40.5991],[17.51751,40.5951],[17.5074,40.5963],[17.45363,40.62089],[17.43739,40.6245],[17.427,40.6336],[17.4188,40.67759],[17.42565,40.68249],[17.42563,40.68787],[17.42194,40.68896],[17.414,40.6843],[17.4045,40.6885],[17.3968,40.695],[17.38685,40.72101],[17.37991,40.72369],[17.3746,40.7229],[17.36598,40.7283],[17.3498,40.7329],[17.3505,40.7465],[17.3536,40.7486],[17.3749,40.7504],[17.39367,40.74861],[17.39555,40.75685],[17.3919,40.7594],[17.3873,40.771],[17.3977,40.77513],[17.40346,40.78656],[17.3979,40.7786],[17.39833,40.7857],[17.3649,40.7864],[17.33302,40.80678],[17.3102,40.8109],[17.2957,40.8179]],[[17.64397,40.64544],[17.64812,40.64497],[17.6438,40.64583],[17.64397,40.64544]],[[17.62593,40.64389],[17.62535,40.64364],[17.62589,40.64323],[17.62593,40.64389]],[[17.60541,40.6561],[17.5993,40.656],[17.58871,40.6524],[17.58907,40.65218],[17.60541,40.6561]],[[17.47622,40.76097],[17.47691,40.75961],[17.48042,40.77145],[17.47622,40.76097]],[[17.45878,40.76945],[17.45975,40.76906],[17.45899,40.76981],[17.45878,40.76945]]]]}},{"type":"Feature","properties":{"settore":"BR_02","n_comuni":13},"geometry":{"type":"MultiPolygon","coordinates":[[[[17.4484,40.5534],[17.4594,40.584],[17.47328,40.59583],[17.4734,40.6106],[17.50746,40.5963],[17.5408,40.5965],[17.6057,40.6077],[17.60451,40.59338],[17.61031,40.59121],[17.6179,40.592],[17.6268,40.5809],[17.62817,40.57441],[17.64693,40.5695],[17.6644,40.57131],[17.67439,40.57942],[17.67545,40.58384],[17.6708,40.5897],[17.67518,40.59995],[17.6733,40.6006],[17.6719,40.6081],[17.67719,40.61719],[17.6791,40.6268],[17.7044,40.6169],[17.71466,40.60003],[17.73417,40.601],[17.7444,40.6055],[17.75062,40.6042],[17.74805,40.6232],[17.74064,40.62667],[17.7339,40.6238],[17.7316,40.6263],[17.75197,40.63135],[17.75318,40.63681],[17.7497,40.6437],[17.7537,40.6476],[17.76589,40.65152],[17.7709,40.6606],[17.7759,40.6759],[17.7788,40.7005],[17.79318,40.7023],[17.8011,40.7083],[17.84354,40.69009],[17.92578,40.6795],[17.93371,40.68099],[17.9332,40.6848],[17.9356,40.6862],[17.942,40.682],[17.9473,40.66942],[17.95377,40.66403],[17.9764,40.663],[17.9677,40.657],[17.96724,40.66251],[17.96241,40.66258],[17.9603,40.6551],[17.952,40.6474],[17.9462,40.6442],[17.93082,40.6425],[17.92789,40.63973],[17.93343,40.63911],[17.9443,40.6425],[17.95063,40.63723],[17.9533,40.645],[17.9691,40.6495],[17.98352,40.64362],[17.98756,40.64498],[17.9872,40.6481],[17.9908,40.6499],[17.9986,40.649],[18.00659,40.64311],[18.0141,40.6418],[18.0169,40.6397],[18.01393,40.63357],[18.01792,40.62239],[18.0448,40.5976],[18.0417,40.584],[18.03465,40.57151],[18.04227,40.55865],[18.055,40.5486],[18.07599,40.537],[18.07984,40.52628],[18.0974,40.5154],[18.09208,40.51246],[18.07852,40.49112],[18.0802,40.4915],[18.0835,40.4885],[18.0743,40.4763],[18.07062,40.48771],[18.05935,40.47987],[18.07416,40.47601],[18.07213,40.47119],[18.0753,40.4645],[18.0691,40.4604],[18.0597,40.4668],[18.06134,40.47007],[18.0567,40.47694],[18.0495,40.4741],[18.03993,40.48767],[18.02668,40.47747],[18.0266,40.4686],[18.0194,40.4638],[18.00304,40.46869],[17.99352,40.46769],[17.991,40.465],[17.9728,40.4547],[17.9534,40.45765],[17.93882,40.43882],[17.9356,40.4289],[17.88647,40.4227],[17.879,40.4164],[17.86479,40.41559],[17.84649,40.4087],[17.82264,40.40343],[17.8197,40.3946],[17.8047,40.38516],[17.8043,40.3812],[17.7983,40.3796],[17.79768,40.38461],[17.79206,40.39042],[17.7776,40.3882],[17.7714,40.3931],[17.77124,40.39695],[17.7286,40.3916],[17.72931,40.39468],[17.71871,40.40538],[17.6939,40.4118],[17.6821,40.4378],[17.6825,40.4408],[17.67695,40.44214],[17.6759,40.4394],[17.6724,40.4395],[17.6521,40.4511],[17.6379,40.4533],[17.63836,40.45709],[17.63515,40.45985],[17.62714,40.46189],[17.5838,40.4602],[17.58317,40.46861],[17.58242,40.45643],[17.5902,40.4494],[17.57731,40.4385],[17.573,40.44199],[17.56562,40.44297],[17.5643,40.4376],[17.561,40.4369],[17.554,40.44507],[17.54368,40.44525],[17.5468,40.4435],[17.5464,40.4384],[17.5239,40.4548],[17.5199,40.4606],[17.51918,40.47149],[17.51174,40.47806],[17.487,40.4822],[17.4796,40.50338],[17.472,40.50991],[17.4648,40.5221],[17.46089,40.5334],[17.4522,40.5426],[17.4484,40.5534]],[[17.91233,40.46579],[17.91141,40.46535],[17.91242,40.46538],[17.91233,40.46579]],[[17.85187,40.48176],[17.84982,40.47877],[17.85,40.47838],[17.85187,40.48176]],[[17.8375,40.47343],[17.83807,40.47261],[17.8399,40.47267],[17.8397,40.47304],[17.8375,40.47343]],[[17.76295,40.60141],[17.76707,40.60219],[17.75357,40.60379],[17.7538,40.60343],[17.76295,40.60141]],[[17.73404,40.5582],[17.73211,40.55658],[17.74391,40.55816],[17.73404,40.5582]],[[17.7127,40.52361],[17.71151,40.5208],[17.71268,40.51669],[17.71297,40.517],[17.7127,40.52361]],[[17.67353,40.54987],[17.67357,40.55296],[17.67314,40.55304],[17.67353,40.54987]],[[17.66075,40.55835],[17.6604,40.5575],[17.66081,40.55756],[17.66075,40.55835]]],[[[18.0273,40.6429],[18.02701,40.643],[18.0275,40.6432],[18.0273,40.6429]]],[[[18.0034,40.6543],[18.00241,40.6547],[18.0034,40.6552],[18.0034,40.6543]]],[[[17.99311,40.6562],[17.9939,40.6571],[17.9943,40.6552],[17.99311,40.6562]]],[[[17.9922,40.6569],[17.99211,40.6574],[17.9928,40.6575],[17.9922,40.6569]]],[[[17.99096,40.65778],[17.9906,40.658],[17.99103,40.6578],[17.99096,40.65778]]],[[[17.9913,40.6577],[17.99122,40.65784],[17.9915,40.658],[17.9913,40.6577]]],[[[17.82383,40.70352],[17.8237,40.7046],[17.8252,40.7028],[17.82383,40.70352]]]]}},{"type":"Feature","properties":{"settore":"FG_01","n_comuni":8},"geometry":{"type":"MultiPolygon","coordinates":[[[[16.2,41.8157],[16.2015,41.8158],[16.2015,41.8152],[16.20149,41.8152],[16.2,41.8157]]],[[[16.19811,41.814],[16.1985,41.8142],[16.1987,41.8135],[16.19811,41.814]]],[[[15.6325,41.8899],[15.647,41.9095],[15.6599,41.9216],[15.6661,41.9211],[15.67192,41.9161],[15.6797,41.9147],[15.73771,41.9158],[15.8193,41.9224],[15.93319,41.9344],[15.98189,41.9424],[15.9935,41.9475],[16.00383,41.94572],[16.0128,41.9501],[16.02403,41.9459],[16.0593,41.9477],[16.0861,41.9405],[16.09372,41.9328],[16.1061,41.9287],[16.12132,41.9149],[16.13348,41.91221],[16.1409,41.9144],[16.1517,41.9072],[16.16114,41.89188],[16.16949,41.88731],[16.1789,41.8872],[16.1852,41.8835],[16.17771,41.87982],[16.17581,41.8596],[16.18041,41.84669],[16.1967,41.8223],[16.1954,41.7961],[16.18941,41.7845],[16.1884,41.7744],[16.1797,41.7682],[16.16765,41.76638],[16.16489,41.7609],[16.1419,41.7657],[16.13191,41.77329],[16.12398,41.776],[16.09701,41.7805],[16.0789,41.7786],[16.07426,41.78392],[16.0392,41.7983],[16.039,41.8079],[16.04028,41.80936],[16.0316,41.8129],[16.01442,41.82977],[16.00373,41.8301],[15.99531,41.82729],[15.9897,41.8207],[15.95842,41.8081],[15.94329,41.7956],[15.8902,41.7801],[15.8646,41.787],[15.84158,41.78748],[15.8447,41.7814],[15.8392,41.7745],[15.82989,41.77579],[15.8049,41.767],[15.7935,41.7665],[15.76439,41.7787],[15.6977,41.8001],[15.6814,41.8112],[15.6686,41.8295],[15.67627,41.83447],[15.67468,41.84885],[15.65701,41.85779],[15.6464,41.8577],[15.6354,41.8658],[15.6325,41.8899]],[[16.0549,41.87935],[16.05423,41.87877],[16.05506,41.87894],[16.0549,41.87935]],[[16.04681,41.89047],[16.04763,41.88942],[16.04711,41.89077],[16.04681,41.89047]],[[16.0028,41.88632],[16.00256,41.89306],[16.00145,41.88365],[16.0028,41.88632]],[[15.9985,41.86038],[15.99775,41.86091],[15.99815,41.86015],[15.9985,41.86038]],[[15.91561,41.83768],[15.91148,41.84023],[15.91752,41.83423],[15.91561,41.83768]]],[[[16.18671,41.845],[16.1879,41.845],[16.1883,41.8438],[16.18671,41.845]]],[[[16.1815,41.8908],[16.1856,41.8885],[16.1853,41.8877],[16.18529,41.8877],[16.1815,41.8908]]],[[[16.1094,41.9284],[16.1108,41.9289],[16.1115,41.928],[16.11149,41.928],[16.1094,41.9284]]],[[[15.7442,42.2265],[15.75129,42.226],[15.7517,42.2257],[15.7481,42.2232],[15.7442,42.2265]]],[[[15.505,42.1195],[15.5052,42.1223],[15.5137,42.1286],[15.518,42.1276],[15.505,42.1195]]],[[[15.5082,42.1293],[15.51,42.1378],[15.5158,42.14],[15.5176,42.1385],[15.5163,42.1361],[15.5082,42.1293]]],[[[15.4969,42.1225],[15.50029,42.1236],[15.5003,42.1236],[15.4997,42.1214],[15.4969,42.1225]]],[[[15.4763,42.1116],[15.4879,42.1236],[15.49159,42.1252],[15.4968,42.1198],[15.4919,42.1101],[15.4822,42.1038],[15.4773,42.1057],[15.4763,42.1116]]]]}},{"type":"Feature","properties":{"settore":"FG_02","n_comuni":19},"geometry":{"type":"MultiPolygon","coordinates":[[[[14.9341,41.6194],[14.95338,41.63778],[14.9555,41.6423],[14.964,41.6434],[14.9887,41.6378],[14.98957,41.63326],[15.00629,41.62311],[15.02565,41.62263],[15.0235,41.6283],[15.0255,41.6341],[15.0342,41.638],[15.04515,41.63701],[15.0471,41.6528],[15.0541,41.6595],[15.06926,41.66071],[15.0734,41.6652],[15.08902,41.6716],[15.0858,41.6751],[15.0894,41.6816],[15.0932,41.6798],[15.09477,41.6742],[15.10249,41.67217],[15.10514,41.67594],[15.1034,41.6801],[15.1061,41.6856],[15.1171,41.6938],[15.16112,41.70958],[15.15755,41.7119],[15.1457,41.7115],[15.1197,41.7227],[15.1018,41.7445],[15.1033,41.749],[15.11609,41.74943],[15.0986,41.7652],[15.1024,41.7824],[15.11467,41.78921],[15.11699,41.79917],[15.1137,41.8082],[15.11632,41.81453],[15.1088,41.8213],[15.1046,41.8311],[15.11561,41.83344],[15.1015,41.8321],[15.101,41.8375],[15.1046,41.8477],[15.11467,41.85079],[15.11871,41.85393],[15.1189,41.8571],[15.12508,41.86231],[15.1254,41.8684],[15.12969,41.87369],[15.1405,41.87912],[15.1317,41.9034],[15.1375,41.9263],[15.18681,41.9206],[15.22711,41.9188],[15.29329,41.9203],[15.3407,41.9172],[15.3532,41.9067],[15.36339,41.90321],[15.41628,41.9009],[15.48651,41.9067],[15.61203,41.92539],[15.6198,41.9287],[15.6599,41.9216],[15.647,41.9095],[15.63254,41.88995],[15.63539,41.8659],[15.64637,41.85773],[15.657,41.8578],[15.6747,41.8489],[15.6763,41.8344],[15.66873,41.82935],[15.6814,41.8112],[15.69771,41.8001],[15.76439,41.7787],[15.7895,41.7676],[15.79939,41.76581],[15.8071,41.7682],[15.8017,41.7628],[15.76981,41.7642],[15.7598,41.762],[15.67872,41.72948],[15.6837,41.7151],[15.67348,41.71033],[15.67271,41.7077],[15.6809,41.685],[15.6857,41.661],[15.6873,41.6509],[15.6838,41.64351],[15.7076,41.6437],[15.7029,41.6267],[15.6907,41.623],[15.67163,41.62939],[15.6622,41.62687],[15.67298,41.61164],[15.67876,41.60862],[15.7084,41.6038],[15.70777,41.60061],[15.7173,41.5887],[15.704,41.5668],[15.68912,41.5677],[15.6753,41.5639],[15.66917,41.56789],[15.6496,41.5669],[15.643,41.5784],[15.64484,41.58345],[15.63744,41.58519],[15.6211,41.5814],[15.6012,41.5807],[15.5947,41.5866],[15.59844,41.59058],[15.59675,41.59484],[15.5919,41.5883],[15.5865,41.5874],[15.5828,41.5979],[15.58525,41.60956],[15.58036,41.61129],[15.5674,41.6099],[15.56825,41.61329],[15.55822,41.5961],[15.5715,41.5891],[15.5605,41.5796],[15.5502,41.5774],[15.53295,41.5926],[15.50532,41.59449],[15.49,41.584],[15.48297,41.58548],[15.48035,41.58367],[15.4934,41.5707],[15.48419,41.57028],[15.4763,41.563],[15.45493,41.5619],[15.4424,41.5565],[15.4312,41.5568],[15.41,41.5524],[15.3858,41.5578],[15.39021,41.561],[15.38862,41.56516],[15.37506,41.57681],[15.3252,41.5899],[15.30796,41.59139],[15.2862,41.5845],[15.2848,41.59325],[15.28003,41.59627],[15.27879,41.5944],[15.2709,41.594],[15.25249,41.59599],[15.25013,41.59417],[15.2744,41.5709],[15.2591,41.5685],[15.2486,41.5751],[15.2189,41.5854],[15.22645,41.59189],[15.22541,41.59972],[15.21232,41.59971],[15.215,41.5916],[15.2137,41.5869],[15.2053,41.58819],[15.2013,41.5771],[15.19589,41.57507],[15.19082,41.56792],[15.2007,41.5699],[15.2064,41.565],[15.20031,41.54671],[15.20327,41.53177],[15.20998,41.5312],[15.22204,41.54653],[15.2208,41.551],[15.2433,41.5466],[15.2595,41.5369],[15.254,41.5282],[15.24819,41.5108],[15.2438,41.5083],[15.22731,41.5093],[15.2039,41.5146],[15.1665,41.5344],[15.1516,41.5392],[15.15053,41.54355],[15.13867,41.53782],[15.1372,41.5287],[15.13112,41.52446],[15.13562,41.5161],[15.1453,41.5095],[15.1428,41.4955],[15.11232,41.49509],[15.0949,41.4849],[15.0841,41.4827],[15.08115,41.51615],[15.07523,41.52245],[15.0686,41.5222],[15.05946,41.52882],[15.04796,41.5277],[15.03988,41.52374],[15.0336,41.5077],[15.02211,41.49381],[15.0168,41.4806],[14.9793,41.5057],[14.96639,41.51899],[14.9405,41.5236],[14.9372,41.5275],[14.9359,41.5424],[14.94551,41.56333],[14.94797,41.57392],[14.9458,41.5768],[14.9468,41.58399],[14.94947,41.5918],[14.9473,41.5962],[14.94737,41.6077],[14.9341,41.6194]],[[15.59804,41.77973],[15.59775,41.77835],[15.60639,41.78535],[15.59804,41.77973]],[[15.59441,41.7747],[15.59491,41.77297],[15.59507,41.77528],[15.59441,41.7747]],[[15.56857,41.7193],[15.55804,41.7149],[15.55788,41.7145],[15.5707,41.71879],[15.56857,41.7193]],[[15.54395,41.71311],[15.54743,41.71205],[15.54388,41.71353],[15.54395,41.71311]],[[15.53205,41.62469],[15.53475,41.6249],[15.53487,41.62531],[15.53205,41.62469]],[[15.49547,41.8469],[15.4905,41.84587],[15.49736,41.84602],[15.49547,41.8469]],[[15.47175,41.84091],[15.47288,41.83836],[15.47218,41.84127],[15.47175,41.84091]],[[15.39061,41.81268],[15.39178,41.8119],[15.39133,41.81985],[15.39061,41.81268]],[[15.37448,41.8061],[15.37504,41.8048],[15.37852,41.80449],[15.37836,41.80489],[15.37448,41.8061]],[[15.3344,41.8678],[15.33073,41.86947],[15.33041,41.86918],[15.3344,41.8678]],[[15.33245,41.62165],[15.32452,41.62399],[15.32333,41.6239],[15.33305,41.62054],[15.33245,41.62165]],[[15.32169,41.91401],[15.32307,41.91389],[15.32313,41.91626],[15.32272,41.91617],[15.32169,41.91401]],[[15.28366,41.80665],[15.28392,41.8058],[15.28742,41.80564],[15.28721,41.80602],[15.28366,41.80665]],[[15.22368,41.61922],[15.23211,41.61852],[15.23256,41.61919],[15.23225,41.61949],[15.22368,41.61922]],[[15.21267,41.91195],[15.2122,41.91329],[15.21228,41.91179],[15.21267,41.91195]],[[15.20604,41.60817],[15.20503,41.60848],[15.20587,41.60778],[15.20604,41.60817]],[[15.18849,41.73864],[15.18972,41.73864],[15.18864,41.73903],[15.18849,41.73864]],[[15.17921,41.72713],[15.18088,41.72928],[15.17716,41.72736],[15.17921,41.72713]],[[15.17247,41.63448],[15.17163,41.63598],[15.16996,41.63655],[15.17001,41.63613],[15.17247,41.63448]],[[15.16626,41.82591],[15.16734,41.82587],[15.16575,41.83061],[15.16547,41.83029],[15.16626,41.82591]],[[15.16241,41.64153],[15.16596,41.63884],[15.16638,41.63893],[15.16318,41.64235],[15.16241,41.64153]],[[15.15146,41.56002],[15.15177,41.56081],[15.14514,41.56121],[15.15146,41.56002]],[[15.12524,41.5259],[15.10442,41.52679],[15.12675,41.52493],[15.12524,41.5259]],[[15.0881,41.5845],[15.10051,41.58649],[15.08278,41.58528],[15.0881,41.5845]],[[15.0481,41.5936],[15.05075,41.59141],[15.04746,41.59535],[15.0481,41.5936]],[[15.0268,41.6206],[15.03157,41.61788],[15.03196,41.61803],[15.02648,41.62215],[15.0268,41.6206]],[[14.98796,41.53977],[14.98258,41.5347],[14.98945,41.53982],[14.98796,41.53977]]],[[[15.3499,41.5831],[15.3499,41.5831],[15.3499,41.5831],[15.3499,41.5831]]],[[[15.6373,41.5278],[15.6539,41.5344],[15.65665,41.53019],[15.6757,41.5238],[15.67539,41.52196],[15.7093,41.5163],[15.70324,41.50694],[15.70449,41.50267],[15.7179,41.5048],[15.6849,41.4947],[15.67506,41.52195],[15.6502,41.5221],[15.6373,41.5278]]],[[[15.6725,41.5572],[15.6805,41.5616],[15.6985,41.5512],[15.6804,41.545],[15.67988,41.55492],[15.6761,41.5537],[15.6725,41.5572]]],[[[15.6275,41.5314],[15.6305,41.5357],[15.6467,41.5333],[15.6364,41.5283],[15.6275,41.5314]]],[[[15.6331,41.5465],[15.63663,41.54856],[15.635,41.5539],[15.6447,41.5526],[15.6408,41.5464],[15.6331,41.5465]]],[[[15.489,41.5782],[15.4992,41.581],[15.5044,41.5745],[15.494,41.5728],[15.489,41.5782]]],[[[15.4826,41.5534],[15.4964,41.5604],[15.4978,41.5591],[15.4918,41.5423],[15.4826,41.5534]]],[[[15.2196,41.557],[15.22739,41.5563],[15.2281,41.556],[15.2246,41.5541],[15.2196,41.557]]],[[[15.2067,41.541],[15.2075,41.5483],[15.2111,41.5514],[15.2172,41.5518],[15.2209,41.5473],[15.2186,41.5445],[15.2067,41.541]]],[[[15.2186,41.5514],[15.21761,41.553],[15.2207,41.5543],[15.2186,41.5514]]],[[[15.2065,41.5398],[15.2093,41.5395],[15.2092,41.5379],[15.2076,41.5375],[15.2065,41.5398]]]]}},{"type":"Feature","properties":{"settore":"FG_03","n_comuni":14},"geometry":{"type":"Polygon","coordinates":[[[15.0168,41.4806],[15.0188,41.4882],[15.03359,41.50769],[15.0406,41.5243],[15.0558,41.5296],[15.06858,41.52222],[15.0752,41.5225],[15.0802,41.518],[15.08556,41.48305],[15.09491,41.48491],[15.1123,41.4951],[15.14239,41.49494],[15.14525,41.50948],[15.1356,41.5161],[15.1312,41.5242],[15.13718,41.52871],[15.1386,41.5378],[15.1508,41.5437],[15.15172,41.53917],[15.1665,41.5344],[15.20391,41.5146],[15.22732,41.5093],[15.24374,41.50831],[15.2481,41.51074],[15.254,41.5282],[15.25938,41.53684],[15.24332,41.54659],[15.22114,41.5509],[15.2221,41.5466],[15.2099,41.5311],[15.2016,41.5333],[15.2003,41.5467],[15.20634,41.56498],[15.20068,41.56987],[15.1905,41.568],[15.1959,41.5751],[15.20131,41.57715],[15.2053,41.5883],[15.21374,41.58708],[15.21498,41.59164],[15.2115,41.5997],[15.2249,41.6003],[15.2276,41.5943],[15.21906,41.5855],[15.2486,41.5751],[15.25869,41.56862],[15.27404,41.57115],[15.2499,41.594],[15.2524,41.596],[15.2709,41.594],[15.27863,41.59439],[15.2799,41.5964],[15.2848,41.5933],[15.28639,41.5846],[15.3079,41.5914],[15.32519,41.5899],[15.3751,41.5768],[15.3886,41.5652],[15.3903,41.561],[15.38635,41.5577],[15.41003,41.55241],[15.45036,41.55939],[15.4563,41.5621],[15.47631,41.56302],[15.4842,41.5703],[15.49298,41.57092],[15.4801,41.5835],[15.4829,41.5855],[15.49005,41.58404],[15.5053,41.5945],[15.533,41.5926],[15.55016,41.57745],[15.56045,41.57959],[15.57127,41.58907],[15.5581,41.596],[15.5674,41.6121],[15.56761,41.60991],[15.57441,41.60971],[15.5748,41.6119],[15.5855,41.6099],[15.58291,41.60087],[15.5846,41.59023],[15.58641,41.58753],[15.59118,41.58803],[15.5951,41.5954],[15.5981,41.5949],[15.5983,41.59],[15.59485,41.58653],[15.60121,41.58072],[15.6211,41.5814],[15.6374,41.5852],[15.6457,41.5831],[15.64306,41.5783],[15.64956,41.56698],[15.65134,41.56637],[15.6692,41.5679],[15.67535,41.56393],[15.6891,41.5677],[15.70394,41.56683],[15.71723,41.58863],[15.7077,41.6007],[15.70828,41.60373],[15.67879,41.6086],[15.673,41.6116],[15.662,41.6271],[15.6716,41.6294],[15.6907,41.62301],[15.70274,41.62665],[15.7075,41.64334],[15.6836,41.6433],[15.68729,41.6509],[15.6857,41.66099],[15.6809,41.685],[15.6727,41.7077],[15.6734,41.7103],[15.68364,41.71519],[15.6796,41.731],[15.7598,41.762],[15.7698,41.7642],[15.80163,41.76281],[15.8071,41.7682],[15.82989,41.7758],[15.83917,41.77454],[15.84463,41.78139],[15.8407,41.7875],[15.8646,41.787],[15.89023,41.78011],[15.94324,41.79558],[15.9584,41.8081],[15.98966,41.82068],[15.9953,41.8273],[16.0037,41.8301],[16.0144,41.8298],[16.03158,41.81292],[16.0412,41.809],[16.03842,41.80556],[16.03931,41.79826],[16.0743,41.7839],[16.0771,41.77982],[16.07974,41.77843],[16.097,41.7805],[16.12399,41.776],[16.1319,41.7733],[16.14192,41.7657],[16.1649,41.7609],[16.1622,41.7543],[16.15011,41.75039],[16.1435,41.7424],[16.1283,41.7384],[16.12143,41.73886],[16.1179,41.7336],[16.10408,41.72918],[16.0877,41.7144],[16.07344,41.7106],[16.0654,41.6957],[16.0394,41.6813],[16.03537,41.68506],[16.039,41.6803],[15.94567,41.64318],[15.93804,41.63792],[15.93685,41.63566],[15.9469,41.61956],[15.94949,41.62],[15.9469,41.6193],[15.9356,41.63641],[15.91303,41.62482],[15.9141,41.622],[15.91232,41.62325],[15.90706,41.62066],[15.9014,41.61478],[15.89611,41.59801],[15.8949,41.57019],[15.90341,41.53539],[15.924,41.4964],[15.91655,41.49241],[15.9154,41.4874],[15.8948,41.4771],[15.8714,41.4707],[15.86348,41.47712],[15.83533,41.46166],[15.8366,41.4496],[15.82101,41.44727],[15.82735,41.44262],[15.8411,41.4456],[15.849,41.4367],[15.84698,41.43549],[15.8482,41.4321],[15.82163,41.42281],[15.81465,41.41624],[15.80964,41.40322],[15.8138,41.3993],[15.813,41.3972],[15.78798,41.38848],[15.77995,41.38103],[15.7866,41.3779],[15.7546,41.3682],[15.73687,41.36988],[15.7146,41.3571],[15.70779,41.36071],[15.6949,41.3461],[15.6873,41.3414],[15.67106,41.34854],[15.6592,41.3397],[15.6296,41.3267],[15.62163,41.34003],[15.6149,41.3363],[15.59967,41.3403],[15.5514,41.336],[15.53905,41.34298],[15.5175,41.3385],[15.51274,41.34018],[15.48142,41.33236],[15.4716,41.327],[15.4204,41.3181],[15.41725,41.32261],[15.4047,41.3266],[15.40059,41.33228],[15.39252,41.3336],[15.37261,41.3304],[15.36429,41.3268],[15.3327,41.3251],[15.3024,41.33199],[15.2597,41.3234],[15.24021,41.3229],[15.23535,41.32991],[15.2372,41.3259],[15.2237,41.3198],[15.2164,41.321],[15.1849,41.3365],[15.17941,41.34556],[15.1726,41.3473],[15.16734,41.36581],[15.16136,41.3661],[15.15054,41.36194],[15.1547,41.3459],[15.1602,41.3354],[15.13534,41.33157],[15.1375,41.3155],[15.1118,41.3198],[15.0977,41.32839],[15.0722,41.3325],[15.0683,41.3506],[15.0585,41.3721],[15.06782,41.37622],[15.0799,41.3881],[15.1003,41.38953],[15.0866,41.40421],[15.0867,41.4079],[15.0917,41.4179],[15.10288,41.42098],[15.0983,41.434],[15.10037,41.43484],[15.0757,41.4329],[15.06271,41.44069],[15.0505,41.4434],[15.03785,41.45424],[15.0324,41.4527],[15.0303,41.4554],[15.02869,41.4676],[15.02334,41.47722],[15.0168,41.4806]],[[16.01717,41.74559],[16.01076,41.74296],[16.01749,41.74531],[16.01717,41.74559]],[[16.00146,41.73763],[16.00033,41.73682],[16.00067,41.73657],[16.00146,41.73763]],[[15.87093,41.695],[15.87066,41.69595],[15.87033,41.69569],[15.87093,41.695]],[[15.86862,41.68649],[15.87095,41.6876],[15.8709,41.68804],[15.86862,41.68649]],[[15.86277,41.68486],[15.86362,41.68506],[15.8629,41.68527],[15.86277,41.68486]],[[15.74182,41.37449],[15.74103,41.37354],[15.74213,41.3742],[15.74182,41.37449]],[[15.73211,41.39862],[15.72951,41.40089],[15.72525,41.40163],[15.72541,41.40122],[15.73211,41.39862]],[[15.68481,41.49496],[15.71472,41.50357],[15.7044,41.5026],[15.7032,41.5069],[15.70897,41.51619],[15.67536,41.52184],[15.68481,41.49496]],[[15.71045,41.4228],[15.70456,41.42042],[15.70441,41.42001],[15.71371,41.4226],[15.71045,41.4228]],[[15.6799,41.5552],[15.6806,41.54512],[15.69807,41.5512],[15.68056,41.56155],[15.67271,41.55722],[15.67608,41.55376],[15.6799,41.5552]],[[15.65015,41.52212],[15.67491,41.522],[15.67562,41.52363],[15.6566,41.5302],[15.65382,41.53433],[15.63731,41.52771],[15.65015,41.52212]],[[15.6363,41.5338],[15.63054,41.53563],[15.62767,41.53145],[15.63703,41.52753],[15.63731,41.5278],[15.64799,41.53405],[15.64814,41.53433],[15.6363,41.5338]],[[15.63518,41.55403],[15.6367,41.5485],[15.63417,41.54649],[15.64078,41.54644],[15.64451,41.55233],[15.63518,41.55403]],[[15.63721,41.34783],[15.6304,41.34471],[15.63757,41.3476],[15.63721,41.34783]],[[15.50389,41.57442],[15.49895,41.58115],[15.48925,41.57812],[15.49404,41.57283],[15.50389,41.57442]],[[15.49655,41.56026],[15.48278,41.55339],[15.49161,41.54261],[15.49774,41.55894],[15.49655,41.56026]],[[15.48827,41.34059],[15.48826,41.34151],[15.48789,41.34077],[15.48827,41.34059]],[[15.24259,41.47297],[15.23736,41.47081],[15.24979,41.47332],[15.24259,41.47297]],[[15.22445,41.55418],[15.22766,41.55613],[15.22067,41.55675],[15.22075,41.55634],[15.22445,41.55418]],[[15.22074,41.54711],[15.21719,41.55177],[15.21109,41.55138],[15.20751,41.54826],[15.20677,41.5413],[15.21854,41.54448],[15.22074,41.54711]],[[15.21793,41.55314],[15.2187,41.55165],[15.22012,41.55369],[15.21977,41.5539],[15.21793,41.55314]],[[15.20749,41.53772],[15.20914,41.53793],[15.20919,41.53945],[15.2068,41.53966],[15.20749,41.53772]],[[15.1854,41.48283],[15.17866,41.48156],[15.18572,41.48256],[15.1854,41.48283]],[[15.17252,41.47719],[15.17316,41.47638],[15.17379,41.47794],[15.17252,41.47719]],[[15.15798,41.45818],[15.16881,41.45829],[15.16964,41.45902],[15.16931,41.45929],[15.15798,41.45818]],[[15.12152,41.45658],[15.12517,41.45541],[15.12812,41.45583],[15.12787,41.45617],[15.12152,41.45658]],[[15.10695,41.47127],[15.11069,41.46709],[15.10705,41.47168],[15.10695,41.47127]],[[15.08652,41.47586],[15.08726,41.47512],[15.08693,41.47599],[15.08652,41.47586]]]}},{"type":"Feature","properties":{"settore":"FG_04","n_comuni":20},"geometry":{"type":"Polygon","coordinates":[[[15.1268,41.304],[15.1306,41.3172],[15.13743,41.31582],[15.1352,41.3316],[15.16001,41.33551],[15.1547,41.3459],[15.1507,41.3622],[15.1613,41.3661],[15.16719,41.3664],[15.17259,41.34739],[15.1794,41.3456],[15.18491,41.33651],[15.2205,41.31982],[15.2372,41.3259],[15.2403,41.3229],[15.2597,41.3234],[15.3024,41.332],[15.33274,41.3251],[15.36427,41.3268],[15.3726,41.3304],[15.3925,41.3336],[15.4006,41.3323],[15.40472,41.32661],[15.4173,41.3226],[15.42056,41.31813],[15.47158,41.327],[15.5128,41.3402],[15.51756,41.33851],[15.5391,41.343],[15.55145,41.33601],[15.56681,41.3386],[15.59969,41.3403],[15.61485,41.33633],[15.6213,41.3408],[15.62979,41.32679],[15.6592,41.3397],[15.6711,41.3486],[15.68741,41.34147],[15.69491,41.34611],[15.7078,41.3608],[15.71466,41.35715],[15.7369,41.3699],[15.75463,41.36821],[15.7859,41.37769],[15.7797,41.3809],[15.788,41.3885],[15.81301,41.39725],[15.8137,41.39937],[15.8096,41.4031],[15.8105,41.40649],[15.8146,41.4162],[15.82159,41.42279],[15.84815,41.43192],[15.8469,41.4356],[15.84878,41.43694],[15.84115,41.44552],[15.8273,41.4426],[15.8205,41.4476],[15.83648,41.44965],[15.8352,41.4616],[15.8636,41.4772],[15.87147,41.47073],[15.8948,41.4771],[15.9153,41.48735],[15.9165,41.4924],[15.924,41.4964],[15.9403,41.4765],[15.95702,41.46159],[15.9843,41.4436],[16.0248,41.4258],[16.0248,41.4214],[15.97921,41.43829],[15.95231,41.44119],[15.93712,41.42579],[15.9764,41.4139],[15.98363,41.4055],[15.9999,41.4008],[16.0177,41.3899],[16.0373,41.3834],[16.0344,41.376],[16.0311,41.3739],[15.9921,41.361],[15.98201,41.36073],[15.9824,41.3356],[15.98342,41.30487],[15.9876,41.3046],[16.01245,41.26439],[16.02243,41.26401],[16.0402,41.2699],[16.027,41.2483],[16.01761,41.23938],[16.01663,41.23037],[16.0198,41.2294],[16.0204,41.2205],[16.008,41.2089],[15.99554,41.20599],[15.9965,41.1994],[15.9916,41.1954],[15.98163,41.1949],[15.977,41.1914],[15.9505,41.1834],[15.93203,41.183],[15.92711,41.1808],[15.9105,41.1661],[15.87334,41.14372],[15.865,41.131],[15.85454,41.13307],[15.84728,41.12973],[15.8461,41.1249],[15.8426,41.1238],[15.8391,41.1245],[15.83934,41.12958],[15.83365,41.13007],[15.8251,41.1184],[15.82143,41.11947],[15.8037,41.11096],[15.7985,41.0916],[15.79061,41.0878],[15.7885,41.0878],[15.788,41.09064],[15.78293,41.08971],[15.7684,41.0832],[15.75259,41.09729],[15.73584,41.09939],[15.72642,41.09584],[15.7261,41.0934],[15.7203,41.0901],[15.6794,41.0868],[15.67565,41.0894],[15.65614,41.0912],[15.6473,41.0896],[15.6225,41.09809],[15.6042,41.0966],[15.5865,41.09829],[15.55975,41.08822],[15.5499,41.0746],[15.54034,41.0722],[15.5429,41.0559],[15.4896,41.07],[15.4788,41.076],[15.47777,41.07856],[15.4609,41.076],[15.4461,41.078],[15.42622,41.09507],[15.4124,41.0966],[15.40072,41.10601],[15.3964,41.10673],[15.3928,41.1008],[15.3664,41.0849],[15.34901,41.09509],[15.3375,41.0953],[15.3198,41.1],[15.31115,41.109],[15.3144,41.1039],[15.2978,41.0944],[15.2908,41.095],[15.2621,41.1076],[15.2635,41.112],[15.26552,41.1135],[15.2638,41.1134],[15.25979,41.11641],[15.23572,41.14007],[15.2176,41.1441],[15.21061,41.1489],[15.2086,41.1564],[15.2104,41.1645],[15.2235,41.1819],[15.2581,41.1975],[15.26369,41.19616],[15.26227,41.20104],[15.2461,41.224],[15.2462,41.2361],[15.27974,41.24032],[15.27411,41.25048],[15.24977,41.2708],[15.23574,41.27228],[15.2285,41.2664],[15.2204,41.2652],[15.2157,41.27584],[15.204,41.2774],[15.1986,41.2812],[15.20011,41.28525],[15.15346,41.2834],[15.1492,41.2804],[15.1377,41.2864],[15.13983,41.2929],[15.13627,41.29802],[15.1268,41.304]],[[15.89834,41.45032],[15.89977,41.45097],[15.90011,41.45273],[15.8997,41.45265],[15.89834,41.45032]],[[15.89311,41.44477],[15.88469,41.44008],[15.89351,41.44462],[15.89311,41.44477]],[[15.85797,41.43357],[15.85703,41.43311],[15.8581,41.43316],[15.85797,41.43357]],[[15.80893,41.30539],[15.78978,41.31628],[15.78938,41.31615],[15.80893,41.30539]],[[15.48219,41.21346],[15.48298,41.21424],[15.48134,41.21767],[15.4811,41.21732],[15.48219,41.21346]],[[15.47656,41.15242],[15.47746,41.14951],[15.47984,41.15105],[15.47656,41.15242]],[[15.47486,41.19339],[15.45371,41.18744],[15.47538,41.19299],[15.47486,41.19339]],[[15.47123,41.1464],[15.47339,41.14782],[15.46756,41.14677],[15.46783,41.14644],[15.47123,41.1464]],[[15.45503,41.14418],[15.45171,41.1442],[15.44765,41.14196],[15.44804,41.14175],[15.45503,41.14418]],[[15.44638,41.27909],[15.44778,41.28117],[15.4453,41.2789],[15.44638,41.27909]],[[15.3622,41.19085],[15.35807,41.19396],[15.35764,41.19387],[15.36184,41.18965],[15.3622,41.19085]],[[15.33543,41.20857],[15.3383,41.21087],[15.33487,41.20884],[15.33543,41.20857]],[[15.32625,41.21383],[15.32439,41.21512],[15.32399,41.21499],[15.32637,41.21197],[15.32625,41.21383]],[[15.32396,41.20737],[15.32525,41.20982],[15.31293,41.20115],[15.32396,41.20737]],[[15.23456,41.30821],[15.23561,41.30772],[15.23753,41.3093],[15.23715,41.30947],[15.23456,41.30821]],[[15.17579,41.30553],[15.17822,41.30496],[15.17421,41.30908],[15.17579,41.30553]]]}},{"type":"Feature","properties":{"settore":"LE_01","n_comuni":37},"geometry":{"type":"MultiPolygon","coordinates":[[[[17.7629,40.2935],[17.768,40.3116],[17.7851,40.31068],[17.78558,40.31563],[17.7811,40.3243],[17.792,40.33672],[17.79918,40.35347],[17.7983,40.3796],[17.8042,40.38119],[17.8046,40.3851],[17.81966,40.39458],[17.8226,40.4034],[17.84648,40.4087],[17.8648,40.4156],[17.87898,40.41641],[17.8864,40.4227],[17.93461,40.4284],[17.9388,40.4388],[17.9533,40.4576],[17.97551,40.45462],[17.9963,40.4683],[18.0064,40.4683],[18.01947,40.46385],[18.02656,40.46862],[18.0266,40.4774],[18.0401,40.4878],[18.0494,40.47426],[18.0566,40.4771],[18.0614,40.47],[18.05986,40.46671],[18.06922,40.46048],[18.07518,40.46446],[18.0721,40.4712],[18.08341,40.48852],[18.08024,40.4915],[18.0727,40.4868],[18.07981,40.49212],[18.0921,40.5125],[18.0974,40.5154],[18.1092,40.5098],[18.12685,40.49288],[18.14478,40.48641],[18.1664,40.4807],[18.1858,40.46931],[18.2027,40.4673],[18.22229,40.45301],[18.23461,40.4483],[18.2488,40.4376],[18.2597,40.42391],[18.2688,40.4192],[18.27902,40.40729],[18.301,40.3945],[18.3065,40.3889],[18.30597,40.38294],[18.3149,40.3745],[18.3515,40.3518],[18.38454,40.31746],[18.3847,40.3186],[18.38879,40.31261],[18.4248,40.2915],[18.4295,40.2865],[18.43004,40.27318],[18.43489,40.26902],[18.4411,40.2688],[18.4452,40.2559],[18.4397,40.25202],[18.4368,40.2255],[18.4228,40.2228],[18.42119,40.22499],[18.41012,40.22444],[18.4157,40.2091],[18.39816,40.20684],[18.401,40.2065],[18.4083,40.1936],[18.3948,40.1847],[18.3757,40.1797],[18.34689,40.1674],[18.338,40.168],[18.33965,40.17385],[18.33557,40.1771],[18.3108,40.1793],[18.30572,40.18397],[18.2997,40.1809],[18.28761,40.18869],[18.2824,40.1816],[18.27501,40.1829],[18.2622,40.1897],[18.2611,40.1914],[18.26322,40.19232],[18.25914,40.19287],[18.2507,40.184],[18.2441,40.1824],[18.24162,40.18523],[18.23221,40.17861],[18.22351,40.16811],[18.2199,40.159],[18.2162,40.1586],[18.21506,40.16073],[18.21227,40.15867],[18.2236,40.1504],[18.2016,40.1353],[18.1851,40.1386],[18.18313,40.14215],[18.1675,40.1372],[18.12761,40.15],[18.1266,40.1524],[18.12958,40.15844],[18.12688,40.15955],[18.12011,40.15425],[18.1216,40.1406],[18.11651,40.13276],[18.11702,40.12529],[18.1232,40.1184],[18.1025,40.1071],[18.0965,40.1062],[18.08639,40.10918],[18.0722,40.1034],[18.07104,40.10926],[18.0625,40.1102],[18.0511,40.1153],[18.04999,40.12018],[18.01003,40.1171],[18.0038,40.1137],[17.9984,40.1214],[17.99469,40.1311],[17.98617,40.13972],[17.9801,40.1395],[17.97459,40.14579],[17.9675,40.1474],[17.9613,40.152],[17.94582,40.16857],[17.9384,40.1706],[17.9185,40.1936],[17.921,40.2126],[17.92634,40.21961],[17.92407,40.22452],[17.9101,40.2363],[17.92524,40.24911],[17.9094,40.2385],[17.9046,40.2405],[17.8952,40.2506],[17.90762,40.24116],[17.91034,40.24158],[17.90439,40.25616],[17.891,40.2598],[17.87973,40.27156],[17.8712,40.2725],[17.8663,40.28029],[17.86047,40.284],[17.8477,40.28599],[17.8388,40.2817],[17.81748,40.2891],[17.7962,40.2895],[17.79274,40.29241],[17.77321,40.2948],[17.7629,40.2935]],[[18.31508,40.23458],[18.31681,40.23655],[18.31661,40.23691],[18.31508,40.23458]],[[18.29979,40.35024],[18.30078,40.35107],[18.30028,40.35297],[18.29994,40.35272],[18.29979,40.35024]],[[18.29477,40.27092],[18.29642,40.26746],[18.29503,40.27126],[18.29477,40.27092]],[[18.28529,40.26329],[18.28502,40.26247],[18.2856,40.263],[18.28529,40.26329]],[[18.27339,40.25542],[18.27032,40.25218],[18.27035,40.25178],[18.27569,40.25562],[18.27339,40.25542]],[[18.2725,40.22717],[18.27184,40.22667],[18.27253,40.22675],[18.2725,40.22717]],[[18.26877,40.32946],[18.26729,40.32843],[18.26909,40.32918],[18.26877,40.32946]],[[18.2646,40.22521],[18.26769,40.22638],[18.26188,40.22605],[18.2646,40.22521]],[[18.23033,40.27727],[18.23064,40.27549],[18.23897,40.28071],[18.23033,40.27727]],[[18.22797,40.20286],[18.23157,40.20646],[18.22735,40.20298],[18.22797,40.20286]],[[18.21994,40.20427],[18.22142,40.2042],[18.21988,40.20469],[18.21994,40.20427]],[[18.21112,40.32907],[18.20785,40.32754],[18.21142,40.32877],[18.21112,40.32907]],[[18.17225,40.24549],[18.17348,40.24293],[18.17391,40.24297],[18.17225,40.24549]],[[18.1624,40.32721],[18.173,40.333],[18.1736,40.32981],[18.1736,40.33375],[18.1624,40.32721]],[[18.15845,40.27265],[18.16093,40.27001],[18.16134,40.27013],[18.15845,40.27265]],[[18.15348,40.28242],[18.15422,40.2785],[18.15464,40.27845],[18.15348,40.28242]],[[18.14465,40.24666],[18.14434,40.24955],[18.14311,40.2497],[18.14298,40.2493],[18.14465,40.24666]],[[18.08939,40.19074],[18.08601,40.1906],[18.08079,40.18861],[18.08117,40.18838],[18.08939,40.19074]],[[18.08511,40.29388],[18.08517,40.29297],[18.08552,40.29376],[18.08511,40.29388]],[[18.07555,40.3553],[18.07818,40.3567],[18.06861,40.35533],[18.06892,40.35504],[18.07555,40.3553]],[[18.06934,40.36755],[18.06998,40.36649],[18.07026,40.36838],[18.06934,40.36755]],[[18.06694,40.39389],[18.06409,40.39544],[18.06694,40.39347],[18.06694,40.39389]],[[18.0666,40.32479],[18.06061,40.32125],[18.06102,40.32018],[18.06145,40.32014],[18.0666,40.32479]],[[18.05472,40.22191],[18.05585,40.2224],[18.05193,40.22603],[18.05472,40.22191]],[[18.04405,40.31379],[18.04501,40.31434],[18.04389,40.31418],[18.04405,40.31379]],[[18.02411,40.3165],[18.02206,40.31459],[18.0274,40.31716],[18.02411,40.3165]],[[18.02689,40.28366],[18.02593,40.28423],[18.02631,40.28047],[18.02666,40.28072],[18.02689,40.28366]],[[18.00907,40.44421],[18.01947,40.43752],[18.02322,40.43659],[18.02309,40.437],[18.00907,40.44421]],[[18.00779,40.30654],[18.00936,40.30452],[18.00833,40.30705],[18.00779,40.30654]],[[18.00332,40.32764],[18.00748,40.32514],[18.00334,40.32806],[18.00332,40.32764]],[[17.98714,40.25183],[17.99324,40.25656],[17.98528,40.25187],[17.98714,40.25183]],[[17.99209,40.39922],[17.99159,40.40036],[17.9899,40.39985],[17.99013,40.39948],[17.99209,40.39922]],[[17.85101,40.34355],[17.85208,40.34359],[17.85106,40.34397],[17.85101,40.34355]],[[17.83675,40.35546],[17.84003,40.35349],[17.83673,40.35661],[17.83675,40.35546]]],[[[18.3976,40.30911],[18.3978,40.3093],[18.3976,40.3091],[18.3976,40.30911]]],[[[18.0589,40.4796],[18.0707,40.4879],[18.0742,40.4759],[18.0625,40.4778],[18.0589,40.4796]]],[[[17.92031,40.2189],[17.9207,40.2197],[17.9217,40.2191],[17.92031,40.2189]]],[[[17.8945,40.2516],[17.8953,40.2519],[17.8954,40.2518],[17.89539,40.2518],[17.8945,40.2516]]],[[[17.8894,40.2537],[17.8905,40.2539],[17.8906,40.2529],[17.89059,40.2529],[17.8894,40.2537]]],[[[17.8814,40.2621],[17.88813,40.25543],[17.8883,40.2546],[17.8839,40.2562],[17.8814,40.2621]]],[[[17.889,40.2558],[17.8887,40.2562],[17.8897,40.2565],[17.889,40.2558]]],[[[17.88779,40.2598],[17.8873,40.2599],[17.8878,40.2598],[17.88779,40.2598]]],[[[17.886,40.264],[17.8857,40.26419],[17.8857,40.2642],[17.886,40.264]]],[[[17.8833,40.2621],[17.88291,40.2622],[17.8834,40.2626],[17.8833,40.2621]]],[[[17.87929,40.2682],[17.8792,40.2685],[17.8793,40.2682],[17.87929,40.2682]]],[[[17.87331,40.2692],[17.8736,40.2698],[17.8746,40.2693],[17.87331,40.2692]]],[[[17.8643,40.2712],[17.8689,40.2695],[17.869,40.2686],[17.86899,40.2686],[17.8643,40.2712]]]]}},{"type":"Feature","properties":{"settore":"LE_02","n_comuni":24},"geometry":{"type":"MultiPolygon","coordinates":[[[[17.9729,40.055],[17.9752,40.0588],[17.983,40.0615],[17.97656,40.05833],[17.97936,40.05652],[17.98891,40.05861],[18.00391,40.07093],[18.0114,40.08593],[18.012,40.0968],[18.00991,40.10904],[18.0046,40.1144],[18.01,40.1171],[18.0502,40.1202],[18.05122,40.11525],[18.06249,40.11021],[18.0711,40.1093],[18.07234,40.10353],[18.0864,40.1092],[18.09217,40.10664],[18.10128,40.10671],[18.12299,40.11835],[18.117,40.1253],[18.1165,40.1328],[18.12158,40.14062],[18.1201,40.1543],[18.1269,40.1596],[18.1297,40.1586],[18.12664,40.15247],[18.12769,40.14997],[18.16746,40.13722],[18.1828,40.1431],[18.18518,40.13859],[18.20159,40.13533],[18.2236,40.1504],[18.2378,40.1314],[18.23073,40.12114],[18.2395,40.121],[18.2494,40.1148],[18.24902,40.10427],[18.2525,40.1016],[18.23742,40.09532],[18.2434,40.0875],[18.23155,40.08017],[18.23392,40.06477],[18.24429,40.05176],[18.2547,40.0549],[18.2632,40.0543],[18.2686,40.0467],[18.26502,40.04617],[18.26758,40.03925],[18.2757,40.0418],[18.2786,40.03494],[18.2845,40.0324],[18.29021,40.02331],[18.3014,40.0187],[18.3081,39.9936],[18.29811,39.99987],[18.28759,39.99622],[18.2919,39.9877],[18.28649,39.97759],[18.2758,39.9655],[18.25987,39.96227],[18.2576,39.9531],[18.2576,39.9295],[18.25521,39.92966],[18.25815,39.92842],[18.2652,39.9307],[18.2807,39.9168],[18.27992,39.90417],[18.29332,39.8827],[18.30658,39.87861],[18.3148,39.8789],[18.3246,39.8756],[18.3264,39.872],[18.32546,39.87147],[18.341,39.8628],[18.33993,39.86163],[18.35,39.8553],[18.35529,39.84116],[18.3643,39.838],[18.3666,39.8333],[18.3668,39.8206],[18.3725,39.8055],[18.369,39.7938],[18.36027,39.79717],[18.3462,39.7912],[18.33401,39.7958],[18.32551,39.80747],[18.3184,39.81],[18.32028,39.81512],[18.3157,39.8085],[18.30139,39.8194],[18.26561,39.83569],[18.23779,39.8346],[18.2088,39.8377],[18.192,39.8457],[18.18982,39.84826],[18.1899,39.847],[18.1733,39.8509],[18.1644,39.858],[18.148,39.863],[18.11998,39.88451],[18.09441,39.89849],[18.0859,39.9007],[18.06611,39.91939],[18.0504,39.9277],[18.04499,39.93571],[18.0296,39.9495],[18.02958,39.95671],[18.02284,39.96516],[18.013,39.9708],[17.9951,39.9944],[17.9932,40.0001],[18.00579,39.99574],[18.01462,40.00274],[18.02059,40.01572],[18.01717,40.03193],[18.00405,40.04742],[17.9808,40.05576],[17.974,40.0521],[17.9729,40.055]],[[18.32275,39.84854],[18.32286,39.84735],[18.32317,39.84859],[18.32275,39.84854]],[[18.27236,40.00861],[18.26603,40.01258],[18.26286,40.01264],[18.26303,40.01225],[18.27236,40.00861]],[[18.26447,39.87683],[18.27048,39.87692],[18.2642,39.87716],[18.26447,39.87683]],[[18.25032,39.93148],[18.25098,39.93291],[18.23784,39.92865],[18.25032,39.93148]],[[18.23823,39.96303],[18.23667,39.964],[18.24058,39.9556],[18.24076,39.95599],[18.23823,39.96303]],[[18.23587,40.0054],[18.23683,40.00585],[18.23382,40.00932],[18.23368,40.00892],[18.23587,40.0054]],[[18.21472,40.07186],[18.21495,40.07113],[18.21687,40.07218],[18.21472,40.07186]],[[18.2005,39.8575],[18.2044,39.85881],[18.20747,39.86292],[18.20705,39.86296],[18.2005,39.8575]],[[18.1999,39.92681],[18.20572,39.92559],[18.19772,39.92904],[18.1999,39.92681]],[[18.201,40.067],[18.19438,40.06333],[18.20448,40.06745],[18.201,40.067]],[[18.1893,39.9903],[18.18853,39.98906],[18.19245,39.9897],[18.18174,39.99374],[18.1893,39.9903]],[[18.15251,40.11698],[18.15258,40.11854],[18.14914,40.11617],[18.15251,40.11698]],[[18.14799,39.97982],[18.14851,39.98099],[18.14777,39.98151],[18.14752,39.98117],[18.14799,39.97982]],[[18.1453,40.07295],[18.1427,40.07459],[18.13885,40.0743],[18.1391,40.07396],[18.1453,40.07295]],[[18.12246,40.04122],[18.12571,40.04091],[18.13323,40.0438],[18.13286,40.04401],[18.12246,40.04122]],[[18.12424,39.95305],[18.12976,39.94514],[18.13024,39.94658],[18.12606,39.95261],[18.12424,39.95305]],[[18.10177,40.00836],[18.10912,40.00146],[18.10956,40.0015],[18.1058,40.0063],[18.10177,40.00836]],[[18.07695,39.98171],[18.07487,39.98658],[18.07373,39.98685],[18.07363,39.98645],[18.07695,39.98171]],[[18.06673,40.02389],[18.07255,40.02231],[18.07387,40.0227],[18.07361,40.02304],[18.06673,40.02389]]],[[[18.12221,39.88],[18.1222,39.8801],[18.1224,39.8801],[18.12221,39.88]]],[[[18.1182,39.8829],[18.11801,39.8831],[18.1189,39.8828],[18.1182,39.8829]]],[[[18.0957,39.8951],[18.0967,39.895],[18.0965,39.8943],[18.09649,39.89431],[18.0957,39.8951]]],[[[17.9689,40.0526],[17.9691,40.0543],[17.9701,40.054],[17.9701,40.05399],[17.9689,40.0526]]],[[[17.9449,40.0462],[17.9471,40.0516],[17.9503,40.0524],[17.9551,40.0499],[17.9513,40.0459],[17.9449,40.0462]]]]}},{"type":"Feature","properties":{"settore":"LE_03","n_comuni":35},"geometry":{"type":"Polygon","coordinates":[[[18.2128,40.1583],[18.2206,40.15947],[18.2235,40.1681],[18.2322,40.1786],[18.2415,40.1846],[18.24416,40.18243],[18.25069,40.18401],[18.2591,40.1929],[18.26324,40.18839],[18.28187,40.18179],[18.2819,40.1833],[18.2875,40.1888],[18.29966,40.18095],[18.3057,40.184],[18.31273,40.1788],[18.3356,40.1771],[18.3397,40.1739],[18.33818,40.16806],[18.34683,40.1674],[18.3757,40.1797],[18.39478,40.1847],[18.4082,40.19359],[18.401,40.2065],[18.41558,40.20924],[18.4099,40.2245],[18.4213,40.225],[18.42294,40.22283],[18.43691,40.22572],[18.4397,40.2521],[18.4452,40.2546],[18.4566,40.2403],[18.4645,40.2251],[18.45792,40.21001],[18.46051,40.19899],[18.46381,40.19279],[18.4777,40.1799],[18.48001,40.17],[18.4867,40.1612],[18.48969,40.14709],[18.49494,40.14534],[18.4972,40.1475],[18.50619,40.1444],[18.5136,40.1384],[18.514,40.1328],[18.50833,40.13029],[18.50684,40.12479],[18.5204,40.1071],[18.50317,40.09329],[18.50339,40.0924],[18.50262,40.09285],[18.48321,40.07727],[18.4849,40.0756],[18.4744,40.0437],[18.4393,40.0256],[18.43364,40.02532],[18.4357,40.0247],[18.43091,40.00953],[18.4317,40.0006],[18.42351,40.00048],[18.41672,39.99402],[18.40771,39.97492],[18.4031,39.9601],[18.4014,39.9458],[18.3951,39.92979],[18.3939,39.9161],[18.39024,39.90747],[18.3973,39.8959],[18.3976,39.87151],[18.39353,39.86856],[18.3932,39.8602],[18.39151,39.86099],[18.3895,39.8465],[18.38463,39.84096],[18.3909,39.8173],[18.369,39.7938],[18.37248,39.80551],[18.3668,39.8206],[18.3666,39.83327],[18.36432,39.83794],[18.3553,39.8411],[18.3507,39.8492],[18.35276,39.85131],[18.3398,39.8617],[18.34015,39.86484],[18.3252,39.8705],[18.3245,39.8756],[18.2926,39.8829],[18.2796,39.9069],[18.28062,39.91678],[18.26526,39.93063],[18.2581,39.9284],[18.2576,39.9531],[18.2599,39.9624],[18.27578,39.96551],[18.28648,39.97757],[18.2916,39.98717],[18.2871,39.9937],[18.29,39.9986],[18.2981,39.9999],[18.30791,39.99431],[18.30141,40.01863],[18.2919,40.0219],[18.28453,40.03235],[18.28,40.0332],[18.27751,40.04034],[18.27406,40.04187],[18.2676,40.0391],[18.265,40.0454],[18.27119,40.048],[18.2667,40.0477],[18.26306,40.05431],[18.2547,40.05489],[18.2443,40.0517],[18.2344,40.0634],[18.2315,40.0802],[18.24262,40.08448],[18.2418,40.0848],[18.24321,40.0889],[18.2379,40.0922],[18.2372,40.0953],[18.2394,40.0973],[18.2515,40.10201],[18.249,40.1042],[18.24938,40.11471],[18.23951,40.12098],[18.2313,40.1196],[18.2304,40.121],[18.2377,40.13153],[18.22251,40.15169],[18.2128,40.1583]],[[18.47606,40.09296],[18.47619,40.09517],[18.47255,40.09028],[18.47606,40.09296]],[[18.42216,40.03509],[18.42168,40.03452],[18.42306,40.03406],[18.42216,40.03509]],[[18.42124,40.15378],[18.422,40.15597],[18.42111,40.15806],[18.42081,40.15775],[18.42124,40.15378]],[[18.4003,40.0081],[18.39975,40.00703],[18.40309,40.00716],[18.4029,40.00753],[18.4003,40.0081]],[[18.3922,40.14401],[18.39662,40.14406],[18.38918,40.14605],[18.3922,40.14401]],[[18.38439,40.084],[18.38877,40.08506],[18.37887,40.08492],[18.3791,40.08457],[18.38439,40.084]],[[18.38432,39.99418],[18.38309,39.99372],[18.38475,39.99357],[18.38432,39.99418]],[[18.38234,40.02782],[18.37967,40.03065],[18.37925,40.03065],[18.38171,40.02729],[18.38234,40.02782]],[[18.3812,40.01681],[18.38132,40.01956],[18.3808,40.01666],[18.3812,40.01681]],[[18.37143,39.99529],[18.37031,39.99406],[18.3728,39.99494],[18.37143,39.99529]],[[18.36817,40.08681],[18.36952,40.0856],[18.36979,40.08593],[18.36817,40.08681]],[[18.36649,40.03756],[18.36466,40.03619],[18.36766,40.03588],[18.36649,40.03756]],[[18.36007,39.8833],[18.36682,39.87643],[18.36724,39.87647],[18.36007,39.8833]],[[18.35968,40.04303],[18.3651,40.0382],[18.36553,40.03822],[18.35694,40.04767],[18.35968,40.04303]],[[18.35614,40.03162],[18.35026,40.025],[18.35028,40.02458],[18.35976,40.03337],[18.35614,40.03162]],[[18.34879,40.13591],[18.35019,40.13626],[18.34877,40.13633],[18.34879,40.13591]],[[18.34605,40.16391],[18.34732,40.16324],[18.3469,40.16597],[18.34652,40.16581],[18.34605,40.16391]],[[18.3405,40.06612],[18.34097,40.06802],[18.34008,40.06614],[18.3405,40.06612]],[[18.33629,40.08983],[18.33797,40.09096],[18.33157,40.09131],[18.33176,40.09095],[18.33629,40.08983]],[[18.32722,40.14015],[18.33671,40.13826],[18.32703,40.14054],[18.32722,40.14015]],[[18.32013,40.08237],[18.3191,40.0852],[18.31393,40.09024],[18.31389,40.08982],[18.32013,40.08237]],[[18.30898,40.09859],[18.3079,40.09743],[18.30921,40.09823],[18.30898,40.09859]],[[18.30438,40.10629],[18.3,40.10494],[18.30632,40.10509],[18.30438,40.10629]],[[18.29591,40.14639],[18.29552,40.14557],[18.29789,40.14502],[18.29591,40.14639]],[[18.28629,40.03385],[18.29298,40.0333],[18.2963,40.03458],[18.29597,40.03484],[18.28629,40.03385]],[[18.29277,40.16673],[18.29395,40.16728],[18.29258,40.16711],[18.29277,40.16673]],[[18.28099,40.13897],[18.27912,40.13817],[18.28427,40.13745],[18.28412,40.13785],[18.28099,40.13897]],[[18.27894,40.03999],[18.28024,40.04027],[18.27628,40.04446],[18.27894,40.03999]],[[18.27142,40.12991],[18.2707,40.13446],[18.2703,40.13463],[18.27142,40.12991]]]}},{"type":"Feature","properties":{"settore":"TA_01","n_comuni":7},"geometry":{"type":"MultiPolygon","coordinates":[[[[16.6969,40.7034],[16.7045,40.7112],[16.70878,40.70549],[16.7249,40.7138],[16.73487,40.71093],[16.7868,40.7333],[16.80008,40.69508],[16.80855,40.69202],[16.82156,40.69399],[16.8186,40.6993],[16.818,40.7062],[16.84207,40.7128],[16.8489,40.7205],[16.8559,40.7236],[16.8639,40.7215],[16.87064,40.7117],[16.8751,40.7165],[16.8924,40.7151],[16.8993,40.712],[16.8998,40.7077],[16.90416,40.70661],[16.93272,40.71192],[16.9231,40.726],[16.9259,40.7368],[16.9287,40.7387],[16.947,40.7432],[16.97151,40.74131],[17.0155,40.7598],[17.0185,40.7559],[17.0189,40.75],[17.00104,40.73136],[17.02258,40.71313],[17.03373,40.71211],[17.06301,40.7211],[17.0857,40.7192],[17.0881,40.7171],[17.08697,40.71099],[17.08922,40.7102],[17.09649,40.70884],[17.10171,40.7145],[17.113,40.7135],[17.1168,40.7109],[17.11642,40.7082],[17.12494,40.7071],[17.14844,40.70993],[17.157,40.7416],[17.2031,40.7609],[17.19167,40.75206],[17.1714,40.7227],[17.16593,40.70936],[17.16816,40.70348],[17.1813,40.6973],[17.1863,40.685],[17.17498,40.68462],[17.1823,40.6807],[17.17302,40.66237],[17.17413,40.65904],[17.17861,40.65713],[17.1837,40.6596],[17.1861,40.6565],[17.18172,40.65149],[17.1822,40.6447],[17.1786,40.6413],[17.1752,40.6416],[17.17388,40.64503],[17.15421,40.63933],[17.15443,40.62851],[17.15823,40.626],[17.1789,40.6225],[17.1745,40.6133],[17.17273,40.61863],[17.1589,40.62474],[17.15613,40.62309],[17.15722,40.61388],[17.17423,40.61022],[17.1789,40.6124],[17.1789,40.6061],[17.16563,40.60081],[17.16131,40.59471],[17.15542,40.57666],[17.1564,40.5733],[17.15163,40.56639],[17.1529,40.56],[17.1496,40.5549],[17.1417,40.55208],[17.1372,40.5447],[17.13404,40.54732],[17.12519,40.538],[17.1356,40.5342],[17.127,40.5177],[17.0943,40.5202],[17.06122,40.5159],[17.02592,40.5069],[16.99312,40.49381],[16.94612,40.46771],[16.90981,40.44141],[16.88391,40.41731],[16.8672,40.3979],[16.8614,40.3999],[16.85885,40.40377],[16.8534,40.4037],[16.8337,40.4124],[16.81021,40.43299],[16.80829,40.4479],[16.80274,40.45741],[16.78548,40.4629],[16.7583,40.463],[16.7552,40.464],[16.75664,40.46759],[16.75416,40.46997],[16.7495,40.4652],[16.7437,40.4647],[16.7356,40.4679],[16.7196,40.4814],[16.73717,40.50513],[16.73478,40.51236],[16.7243,40.5146],[16.7167,40.5236],[16.72246,40.53345],[16.7216,40.53718],[16.71451,40.54499],[16.7057,40.5502],[16.7078,40.5646],[16.71369,40.57649],[16.71578,40.5871],[16.7118,40.5928],[16.72767,40.60122],[16.7258,40.6016],[16.7142,40.6143],[16.7101,40.6302],[16.72569,40.67757],[16.72717,40.68819],[16.7091,40.693],[16.6969,40.7034]],[[17.13136,40.67625],[17.12979,40.67619],[17.12674,40.67306],[17.12714,40.67298],[17.13136,40.67625]],[[17.0694,40.60282],[17.07007,40.59854],[17.07033,40.60798],[17.0694,40.60282]],[[17.05159,40.55124],[17.0511,40.54741],[17.05145,40.54717],[17.05159,40.55124]],[[16.99709,40.55064],[16.99647,40.55198],[16.99674,40.5504],[16.99709,40.55064]],[[16.9932,40.53093],[16.99388,40.53744],[16.99172,40.52892],[16.9932,40.53093]],[[16.98713,40.6039],[16.98749,40.60329],[16.98755,40.60383],[16.98713,40.6039]],[[16.98088,40.623],[16.98087,40.62423],[16.97371,40.62582],[16.97389,40.62543],[16.98088,40.623]],[[16.95636,40.54683],[16.95738,40.54746],[16.95751,40.54904],[16.95709,40.5489],[16.95636,40.54683]],[[16.95058,40.50363],[16.95186,40.50416],[16.95008,40.50427],[16.95058,40.50363]],[[16.94346,40.63002],[16.95008,40.62828],[16.95045,40.62852],[16.93931,40.63289],[16.94346,40.63002]],[[16.85702,40.58129],[16.85972,40.58522],[16.85959,40.58562],[16.85702,40.58129]],[[16.82663,40.57355],[16.82415,40.57504],[16.83036,40.56686],[16.83046,40.56728],[16.82663,40.57355]]],[[[17.1739,40.6272],[17.1766,40.6264],[17.1756,40.6237],[17.1742,40.6242],[17.1739,40.6272]]],[[[17.1646,40.6189],[17.169,40.6194],[17.1708,40.6174],[17.1692,40.6154],[17.1646,40.6189]]],[[[17.1678,40.63039],[17.1702,40.6296],[17.1689,40.6277],[17.1678,40.63039]]],[[[17.1655,40.6148],[17.1655,40.616],[17.1666,40.6161],[17.1666,40.61609],[17.1655,40.6148]]]]}},{"type":"Feature","properties":{"settore":"TA_02","n_comuni":4},"geometry":{"type":"Polygon","coordinates":[[[17.1542,40.6395],[17.1741,40.6451],[17.17524,40.64165],[17.17855,40.64132],[17.18218,40.64473],[17.1817,40.6515],[17.18488,40.65379],[17.18602,40.65657],[17.18275,40.66007],[17.1808,40.6567],[17.174,40.6591],[17.173,40.6628],[17.1759,40.6706],[17.18228,40.68016],[17.1765,40.6842],[17.18616,40.68535],[17.1813,40.69726],[17.1681,40.7035],[17.1659,40.7093],[17.1714,40.7227],[17.1917,40.7521],[17.2033,40.76],[17.20446,40.7571],[17.2146,40.7613],[17.22781,40.75732],[17.24797,40.76561],[17.25108,40.77503],[17.2435,40.7989],[17.286,40.79761],[17.2873,40.8011],[17.29758,40.80021],[17.3017,40.8021],[17.3104,40.7904],[17.3017,40.7846],[17.2951,40.7849],[17.29556,40.7885],[17.28882,40.78678],[17.28917,40.78207],[17.3011,40.7745],[17.3011,40.7725],[17.28371,40.77367],[17.28308,40.76752],[17.30678,40.74462],[17.31562,40.74094],[17.323,40.7436],[17.33568,40.73783],[17.34021,40.73928],[17.341,40.7429],[17.35069,40.7489],[17.3536,40.7486],[17.3502,40.74553],[17.34992,40.73289],[17.366,40.7283],[17.37456,40.72293],[17.3799,40.7237],[17.3869,40.721],[17.39678,40.69504],[17.40451,40.6885],[17.41397,40.68434],[17.422,40.689],[17.4261,40.6878],[17.4257,40.6825],[17.41883,40.67747],[17.42744,40.63287],[17.43742,40.6245],[17.4536,40.6209],[17.4734,40.6106],[17.4733,40.5958],[17.4645,40.5902],[17.45753,40.58104],[17.453,40.5677],[17.4513,40.5682],[17.45313,40.58183],[17.44349,40.58369],[17.43196,40.57964],[17.44359,40.56791],[17.4517,40.5652],[17.44831,40.55493],[17.44961,40.54938],[17.45222,40.54258],[17.4609,40.5334],[17.47139,40.51073],[17.4799,40.5028],[17.487,40.4846],[17.48373,40.47988],[17.4859,40.4722],[17.4717,40.464],[17.4526,40.4611],[17.4503,40.4631],[17.45225,40.46875],[17.447,40.47629],[17.441,40.4798],[17.43323,40.48106],[17.4325,40.4785],[17.4262,40.4766],[17.42625,40.48114],[17.41565,40.49155],[17.4093,40.4923],[17.40528,40.49889],[17.3966,40.502],[17.39917,40.50785],[17.39786,40.51039],[17.37151,40.5144],[17.3579,40.5131],[17.3472,40.5198],[17.3494,40.5263],[17.35299,40.5291],[17.35982,40.52924],[17.3703,40.5408],[17.3814,40.54586],[17.3822,40.54968],[17.37177,40.5581],[17.35582,40.5591],[17.3295,40.5315],[17.3161,40.5349],[17.31515,40.551],[17.3006,40.5596],[17.3003,40.5619],[17.30354,40.56397],[17.29621,40.56819],[17.28834,40.57019],[17.2728,40.5694],[17.22676,40.5817],[17.2046,40.58129],[17.1959,40.577],[17.1744,40.5719],[17.1564,40.5733],[17.1554,40.5766],[17.1613,40.5947],[17.1656,40.6008],[17.17881,40.60609],[17.17909,40.61147],[17.1765,40.61244],[17.1743,40.6102],[17.1572,40.6138],[17.1561,40.6232],[17.159,40.6248],[17.16322,40.62131],[17.1691,40.6213],[17.1728,40.6186],[17.17453,40.61381],[17.17876,40.62228],[17.1582,40.626],[17.15431,40.6286],[17.1542,40.6395]],[[17.40949,40.58707],[17.4162,40.5827],[17.42769,40.58056],[17.43009,40.59007],[17.41407,40.59129],[17.40949,40.58707]],[[17.36908,40.52538],[17.35312,40.52082],[17.36067,40.51764],[17.36669,40.52071],[17.36908,40.52538]],[[17.35846,40.56445],[17.35718,40.56491],[17.35705,40.5645],[17.35846,40.56445]],[[17.29725,40.78789],[17.29914,40.78701],[17.29859,40.78876],[17.29725,40.78789]],[[17.29166,40.7906],[17.29045,40.79054],[17.29126,40.78967],[17.29166,40.7906]],[[17.28054,40.7786],[17.28278,40.77841],[17.28255,40.78071],[17.28025,40.78002],[17.28054,40.7786]],[[17.26404,40.64948],[17.26275,40.64913],[17.26794,40.64708],[17.26404,40.64948]],[[17.25188,40.6516],[17.24664,40.6503],[17.25512,40.6508],[17.25188,40.6516]],[[17.17649,40.6261],[17.17405,40.62702],[17.17425,40.62422],[17.17562,40.62386],[17.17649,40.6261]],[[17.16562,40.61964],[17.16903,40.61558],[17.17067,40.61725],[17.16899,40.61938],[17.16562,40.61964]],[[17.17002,40.62952],[17.16804,40.62982],[17.16905,40.62804],[17.17002,40.62952]],[[17.16571,40.61601],[17.16588,40.61533],[17.16619,40.61582],[17.16571,40.61601]]]}},{"type":"Feature","properties":{"settore":"TA_03","n_comuni":18},"geometry":{"type":"MultiPolygon","coordinates":[[[[17.1249,40.5377],[17.1342,40.5475],[17.13774,40.54508],[17.1417,40.5521],[17.14962,40.55494],[17.15288,40.56],[17.1516,40.5664],[17.1564,40.5733],[17.17442,40.57191],[17.1959,40.577],[17.2046,40.5813],[17.2268,40.5817],[17.27278,40.56941],[17.2883,40.5702],[17.3007,40.5665],[17.304,40.5637],[17.30038,40.5619],[17.30066,40.55958],[17.3152,40.551],[17.3146,40.53883],[17.31609,40.53497],[17.32936,40.53154],[17.3557,40.5587],[17.3709,40.5583],[17.3788,40.55379],[17.3823,40.5496],[17.3814,40.5458],[17.3703,40.54079],[17.3598,40.5292],[17.35294,40.52905],[17.34832,40.525],[17.3473,40.51973],[17.35435,40.51401],[17.3715,40.5144],[17.3979,40.5104],[17.3992,40.5079],[17.39677,40.50199],[17.4053,40.4989],[17.40916,40.4926],[17.4105,40.4934],[17.4156,40.4916],[17.4263,40.4811],[17.42598,40.47665],[17.43241,40.47849],[17.433,40.4811],[17.439,40.4807],[17.447,40.4763],[17.4523,40.4687],[17.45084,40.46187],[17.45221,40.46099],[17.4595,40.4611],[17.47148,40.46395],[17.48569,40.47208],[17.4837,40.4799],[17.487,40.4822],[17.5117,40.4781],[17.5192,40.4715],[17.51991,40.46062],[17.52392,40.45479],[17.54738,40.43848],[17.54679,40.44345],[17.5421,40.4453],[17.554,40.4451],[17.56112,40.43693],[17.56429,40.43769],[17.5654,40.443],[17.573,40.442],[17.57741,40.43861],[17.58996,40.4492],[17.5824,40.4564],[17.5838,40.4602],[17.6127,40.4623],[17.6351,40.4599],[17.6384,40.4571],[17.63813,40.45327],[17.6521,40.4511],[17.67242,40.43951],[17.67584,40.43945],[17.6768,40.4422],[17.6826,40.4408],[17.68381,40.43068],[17.69339,40.41234],[17.7187,40.4054],[17.7294,40.3946],[17.72887,40.39168],[17.7715,40.397],[17.77145,40.39307],[17.77758,40.38824],[17.792,40.3905],[17.7977,40.3846],[17.7992,40.3535],[17.7927,40.336],[17.78432,40.3301],[17.78115,40.32439],[17.7856,40.3156],[17.7851,40.3105],[17.76805,40.31153],[17.7639,40.2961],[17.75836,40.29779],[17.7431,40.295],[17.73545,40.29881],[17.68128,40.3045],[17.52241,40.2947],[17.5042,40.2967],[17.50502,40.30466],[17.5036,40.3025],[17.49478,40.31],[17.458,40.317],[17.44849,40.32729],[17.43223,40.33139],[17.3951,40.3324],[17.39043,40.33735],[17.3862,40.3373],[17.37827,40.3467],[17.3498,40.3544],[17.34051,40.36194],[17.3243,40.3617],[17.3084,40.3693],[17.2961,40.37889],[17.279,40.3797],[17.27602,40.38563],[17.23521,40.4014],[17.22282,40.40888],[17.2058,40.4085],[17.2025,40.4138],[17.2117,40.4229],[17.23048,40.424],[17.24112,40.43052],[17.25038,40.44252],[17.24917,40.45881],[17.22659,40.47947],[17.1921,40.477],[17.1819,40.4818],[17.18162,40.49222],[17.1771,40.49],[17.1661,40.50078],[17.1571,40.4949],[17.1551,40.4966],[17.16526,40.50378],[17.16269,40.50602],[17.1447,40.4949],[17.14919,40.50677],[17.127,40.5177],[17.13547,40.53405],[17.1249,40.5377]],[[17.75778,40.31553],[17.75693,40.31649],[17.72722,40.31411],[17.72843,40.3137],[17.75778,40.31553]],[[17.70253,40.34446],[17.6978,40.34524],[17.6975,40.34493],[17.70253,40.34446]],[[17.5678,40.37912],[17.56952,40.38387],[17.56567,40.3779],[17.5678,40.37912]],[[17.56033,40.35552],[17.56104,40.35325],[17.56326,40.35272],[17.56033,40.35552]],[[17.56211,40.37237],[17.56111,40.37013],[17.56139,40.36982],[17.56211,40.37237]],[[17.507,40.4291],[17.50061,40.43516],[17.50018,40.43515],[17.50686,40.42738],[17.507,40.4291]],[[17.50439,40.41149],[17.50474,40.41697],[17.50174,40.40698],[17.50439,40.41149]],[[17.48654,40.39479],[17.48301,40.39903],[17.4864,40.39439],[17.48654,40.39479]],[[17.42552,40.43349],[17.42396,40.43507],[17.42526,40.43315],[17.42552,40.43349]],[[17.41319,40.43892],[17.41891,40.44207],[17.41902,40.44249],[17.41217,40.43954],[17.41319,40.43892]],[[17.39955,40.45645],[17.40171,40.45528],[17.40209,40.45545],[17.39991,40.45784],[17.39955,40.45645]],[[17.39532,40.4217],[17.39442,40.42672],[17.39358,40.42734],[17.39339,40.42698],[17.39532,40.4217]],[[17.39348,40.48371],[17.39189,40.48301],[17.3937,40.48335],[17.39348,40.48371]],[[17.38944,40.46485],[17.39066,40.46119],[17.39218,40.46074],[17.39227,40.46115],[17.38944,40.46485]],[[17.3847,40.38397],[17.38246,40.38207],[17.38246,40.38101],[17.38288,40.38106],[17.3847,40.38397]],[[17.38112,40.39348],[17.3789,40.39339],[17.38425,40.39093],[17.38112,40.39348]],[[17.37669,40.43518],[17.37357,40.4414],[17.37315,40.44143],[17.37669,40.43518]],[[17.3653,40.40813],[17.36597,40.40668],[17.3693,40.41255],[17.36888,40.41254],[17.3653,40.40813]],[[17.35436,40.40495],[17.35361,40.40405],[17.35406,40.40268],[17.35439,40.40296],[17.35436,40.40495]],[[17.3484,40.39116],[17.34798,40.39331],[17.34764,40.39093],[17.3484,40.39116]],[[17.34287,40.43747],[17.34728,40.43031],[17.34303,40.43784],[17.34287,40.43747]],[[17.33198,40.4],[17.33073,40.40068],[17.33123,40.39741],[17.33198,40.4]],[[17.33115,40.40923],[17.33012,40.40919],[17.33052,40.40786],[17.33115,40.40923]]],[[[17.4317,40.5798],[17.4435,40.5837],[17.4533,40.5816],[17.4517,40.5652],[17.4436,40.5679],[17.4317,40.5798]]],[[[17.4092,40.5868],[17.414,40.5913],[17.4302,40.5903],[17.4273,40.5813],[17.4162,40.5827],[17.4092,40.5868]]],[[[17.3606,40.5176],[17.35241,40.521],[17.3694,40.5258],[17.3667,40.5207],[17.3606,40.5176]]],[[[17.17341,40.44],[17.1746,40.4407],[17.1785,40.4373],[17.17341,40.44]]],[[[17.1433,40.4505],[17.1592,40.4555],[17.167,40.4481],[17.1535,40.4449],[17.1433,40.4505]]]]}}]}